application_name	business_name	business_address	address_url	application_type	application_url	pdf_path	markdown_path	ds	latitude	longitude	address_inferred	postal_code
New York State Liquor License Application Reviews	Cannonball LLC	295 Front	https://goo.gl/maps/zikRAwNcgkZnXxZp8	New		agendas/2023_01_04_HESS_agenda.pdf	agenda_markdowns/2023_01_04_HESS_agenda.md	2023-01-04	40.7025079	-73.9814804	295, Front Street, Dumbo, Brooklyn, Kings County, City of New York, New York, 11201, United States	11201
New York State Liquor License Application Reviews	Real Hospitality Group	85 Flatbush	https://g.page/TillaryHotelBrooklyn?share	New		agendas/2023_01_04_HESS_agenda.pdf	agenda_markdowns/2023_01_04_HESS_agenda.md	2023-01-04	40.6966011	-73.9845337	The Tillary Hotel, 85, Flatbush Avenue Extension, Downtown Brooklyn, Brooklyn, Kings County, City of New York, New York, 11201, United States	11201
New York State Liquor License Application Reviews	Olympia Wine Bar	54 Jay	https://goo.gl/maps/HaCAipucuc7y2bdz7	Renewal		agendas/2023_01_04_HESS_agenda.pdf	agenda_markdowns/2023_01_04_HESS_agenda.md	2023-01-04	40.7032744	-73.9868763	54, Jay Street, Dumbo, Brooklyn, Kings County, City of New York, New York, 11201, United States	11201
New York State Liquor License Application Reviews	EastVille Comedy Club	487 Atlantic	https://goo.gl/maps/ucLs9s6e87ZugSxU6	Renewal		agendas/2023_01_04_HESS_agenda.pdf	agenda_markdowns/2023_01_04_HESS_agenda.md	2023-01-04	40.6859068	-73.9816185	487, Atlantic Avenue, Boerum Hill, Brooklyn, Kings County, City of New York, New York, 11217, United States	11217
New York State Liquor License Application Reviews	Fancy Free	71 Lafayette	https://goo.gl/maps/6vw6b3RRDvMRKNmYA	Renewal		agendas/2023_01_04_HESS_agenda.pdf	agenda_markdowns/2023_01_04_HESS_agenda.md	2023-01-04	40.6873602	-73.9754669	71, Lafayette Avenue, Fort Greene, Brooklyn, Kings County, City of New York, New York, 11217, United States	11217
New York State Liquor License Application Reviews	Peaches Prime @ Gotham Market	590 Fulton	https://goo.gl/maps/tpZb93vo7hpRxFax8	Renewal		agendas/2023_01_04_HESS_agenda.pdf	agenda_markdowns/2023_01_04_HESS_agenda.md	2023-01-04	40.688123	-73.979194	590, Fulton Street, Fort Greene, Brooklyn, Kings County, City of New York, New York, 11217, United States	11217
New York State Liquor License Application Reviews	1 Hotel ETC	60 Furman	https://goo.gl/maps/wzKv1W2rb4W9W6DA9	Renewal		agendas/2023_01_04_HESS_agenda.pdf	agenda_markdowns/2023_01_04_HESS_agenda.md	2023-01-04	40.7022571	-73.9955518	1 Hotel Brooklyn Bridge, 60, Furman Street, Dumbo, Brooklyn, Kings County, City of New York, New York, 11201, United States	11201
New York State Liquor License Application Reviews	Bonchon	68 Willoughby	https://goo.gl/maps/8jZvwLaQp2WPwiTX9	Renewal		agendas/2023_01_04_HESS_agenda.pdf	agenda_markdowns/2023_01_04_HESS_agenda.md	2023-01-04	40.6920783	-73.9859254	Bonchon, 68, Willoughby Street, Downtown Brooklyn, Brooklyn, Kings County, City of New York, New York, 11201, United States	11201
New York State Liquor License Application Reviews	Golfzon Social	11 Hoyt	https://goo.gl/maps/E3qumdSbCm1Zr3hd9	NY State Liquor License Applications		agendas/2023_03_01_HESS_agenda.pdf	agenda_markdowns/2023_03_01_HESS_agenda.md	2023-03-01	40.6897868	-73.9853461	11, Hoyt Street, Downtown Brooklyn, Brooklyn, Kings County, City of New York, New York, 11201, United States	11201
New York State Liquor License Application Reviews	Slutty Vegan, Inc.	690 Fulton	https://goo.gl/maps/Fc2WhT3ZLWmvpg8a6	NY State Liquor License Applications		agendas/2023_03_01_HESS_agenda.pdf	agenda_markdowns/2023_03_01_HESS_agenda.md	2023-03-01	40.6861038	-73.974261	Slutty Vegan, 690, Fulton Street, Fort Greene, Brooklyn, Kings County, City of New York, New York, 11217, United States	11217
New York State Liquor License Application Reviews	Wonder Beach	117 Adams	https://www.google.com/maps/place/117+Adams+St,+Brooklyn,+NY+11201/@40.7005529,-73.9904775,16z/data=!4m7!3m6!1s0x89c25a341f4739bf:0xfa09c6aae4d9922c!8m2!3d40.7005529!4d-73.9882888!15sCgkxMTcgQWRhbXOSARBnZW9jb2RlZF9hZGRyZXNz4AEA!16s%2Fg%2F11c1y911fn?coh=164777&entry=tt	NY State Liquor License Applications		agendas/2023_03_01_HESS_agenda.pdf	agenda_markdowns/2023_03_01_HESS_agenda.md	2023-03-01	40.7005099	-73.9882196	117, Adams Street, Dumbo, Brooklyn, Kings County, City of New York, New York, 11201, United States	11201
New York State Liquor License Application Reviews	Haley's (Jack's Place)	479 Atlantic	https://goo.gl/maps/2hn3pzpPaBhTABmb9	NY State Liquor License Applications		agendas/2023_03_01_HESS_agenda.pdf	agenda_markdowns/2023_03_01_HESS_agenda.md	2023-03-01	40.6859951	-73.9818868	479, Atlantic Avenue, Boerum Hill, Brooklyn, Kings County, City of New York, New York, 11217, United States	11217
New York State Liquor License Application Reviews	Ippudo NY, LLC	117 Adams	https://www.google.com/maps/place/117+Adams+St,+Brooklyn,+NY+11201/@40.7005529,-73.9904775,16z/data=!4m7!3m6!1s0x89c25a341f4739bf:0xfa09c6aae4d9922c!8m2!3d40.7005529!4d-73.9882888!15sCgkxMTcgQWRhbXOSARBnZW9jb2RlZF9hZGRyZXNz4AEA!16s%2Fg%2F11c1y911fn?coh=164777&entry=tt	Liquor, Wine, Beer & Cider		agendas/2023_04_05_HESS_agenda.pdf	agenda_markdowns/2023_04_05_HESS_agenda.md	2023-04-05	40.7005099	-73.9882196	117, Adams Street, Dumbo, Brooklyn, Kings County, City of New York, New York, 11201, United States	11201
New York State Liquor License Application Reviews	Slutty Vegan, Inc.	690 Fulton	https://goo.gl/maps/Fc2WhT3ZLWmvpg8a6	Liquor, Wine, Beer & Cider		agendas/2023_04_05_HESS_agenda.pdf	agenda_markdowns/2023_04_05_HESS_agenda.md	2023-04-05	40.6861038	-73.974261	Slutty Vegan, 690, Fulton Street, Fort Greene, Brooklyn, Kings County, City of New York, New York, 11217, United States	11217
New York State Liquor License Application Reviews	Edward Dean DBA Brogans	47 Hall	https://goo.gl/maps/9iYbvkUn6gFJ93PB9	Liquor, Wine, Beer & Cider		agendas/2023_04_05_HESS_agenda.pdf	agenda_markdowns/2023_04_05_HESS_agenda.md	2023-04-05	40.6964109	-73.9663828	47, Hall Street, Clinton Hill, Brooklyn, Kings County, City of New York, New York, 11205, United States	11205
New York State Liquor License Application Reviews	Jennifer Bistro Inc	229 Livingston	https://goo.gl/maps/KW29AUoNiZAaUY6F7	CHANGE		agendas/2023_04_05_HESS_agenda.pdf	agenda_markdowns/2023_04_05_HESS_agenda.md	2023-04-05	40.689245	-73.984502	229, Livingston Street, Downtown Brooklyn, Brooklyn, Kings County, City of New York, New York, 11201, United States	11201
New York State Liquor License Application Reviews	Chef Katsu Brooklyn	143 Greene	https://goo.gl/maps	Wine, Beer & Cider		agendas/2023_04_05_HESS_agenda.pdf	agenda_markdowns/2023_04_05_HESS_agenda.md	2023-04-05	40.6868045	-73.9663505	143, Greene Avenue, Fort Greene, Brooklyn, Kings County, City of New York, New York, 11238, United States	11238
New York State Liquor License Application Reviews	Hudson Wilder	44 Pearl	https://goo.gl/maps	Wine, Beer & Cider		agendas/2023_04_05_HESS_agenda.pdf	agenda_markdowns/2023_04_05_HESS_agenda.md	2023-04-05	40.7034976	-73.9876849	44, Pearl Street, Dumbo, Brooklyn, Kings County, City of New York, New York, 11201, United States	11201
New York State Liquor License Application Reviews	FG OD LLC	63 Lafayette	https://goo.gl/maps/524MDJNodddBePkg9	Liquor, Wine, Beer & Cider		agendas/2023_05_03_HESS_agenda.pdf	agenda_markdowns/2023_05_03_HESS_agenda.md	2023-05-03	40.6872949	-73.9760035	63, Lafayette Avenue, Fort Greene, Brooklyn, Kings County, City of New York, New York, 11217, United States	11217
New York State Liquor License Application Reviews	Choice Market	284 Grand / 318 Lafayette	https://goo.gl/maps/e1GowCXLKUJj1RrD6	Wine, Beer & Cider		agendas/2023_05_03_HESS_agenda.pdf	agenda_markdowns/2023_05_03_HESS_agenda.md	2023-05-03				None
New York State Liquor License Application Reviews	Dekalb Pizzeria	445 Albee Square West	https://goo.gl/maps/zABzNLXcTgjtncTb8	Beer & Cider		agendas/2023_05_03_HESS_agenda.pdf	agenda_markdowns/2023_05_03_HESS_agenda.md	2023-05-03	40.6908869	-73.9830979	City Point, 445, Albee Square, Downtown Brooklyn, Brooklyn, Kings County, City of New York, New York, 11201, United States	11201
NEW YORK STATE LIQUOR LICENSE APPLICATION REVIEWS	La Rose	150 Smith	https://goo.gl/maps/vCNnUwbzB8mdcggb8	Wine, Beer & Cider	https://drive.google.com/file/d/1M0wWztaNdkdz41wbW1PmGeralFv1WwTq/view?usp=share_link	agendas/2023_06_07_HESS_agenda.pdf	agenda_markdowns/2023_06_07_HESS_agenda.md	2023-06-07	40.6866428	-73.9907975	150, Smith Street, Boerum Hill, Brooklyn, Kings County, City of New York, New York, 11201, United States	11201
NEW YORK STATE LIQUOR LICENSE APPLICATION REVIEWS	Le Petit Monstre	82 Washington	https://goo.gl/maps/v137ygbU84NkBeoL9	Wine, Beer & Cider		agendas/2023_06_07_HESS_agenda.pdf	agenda_markdowns/2023_06_07_HESS_agenda.md	2023-06-07	40.6963493	-73.9676548	82, Washington Avenue, Clinton Hill, Brooklyn, Kings County, City of New York, New York, 11205, United States	11205
NEW YORK STATE LIQUOR LICENSE APPLICATION REVIEWS	Brooklyn Paramount Theater	385 Flatbush	https://goo.gl/maps/tMYiQRPp6tHA4Rng6	Liquor, Wine, Beer & Cider	https://drive.google.com/file/d/1EFe2pZqiranKzPQFqvrV2TQ3H-Eb6-Lh/view?usp=share_link	agendas/2023_06_07_HESS_agenda.pdf	agenda_markdowns/2023_06_07_HESS_agenda.md	2023-06-07	40.6761314	-73.9714493	Kami, 385, Flatbush Avenue, Prospect Heights, Brooklyn, Kings County, City of New York, New York, 11238, United States	11238
NEW YORK STATE LIQUOR LICENSE APPLICATION REVIEWS	Venerdi Inc	455 Myrtle	https://goo.gl/maps/XL5ZiM63mPb31xXS7	Liquor, Wine, Beer & Cider	https://drive.google.com/file/d/1JhgCyJEaIwwJYcG-M6tb2mMhyoDwSGL4/view?usp=share_link	agendas/2023_06_07_HESS_agenda.pdf	agenda_markdowns/2023_06_07_HESS_agenda.md	2023-06-07	40.6934497	-73.9673815	455, Myrtle Avenue, Clinton Hill, Brooklyn, Kings County, City of New York, New York, 11205, United States	11205
NEW YORK STATE LIQUOR LICENSE APPLICATION REVIEWS	Hawkward LLC	14 Jay	https://goo.gl/maps/xxXaVRqr668Gv4BC8	Liquor, Wine, Beer & Cider	https://drive.google.com/file/d/1tIGiuMaiVXh-51ZvGpI-JAGRkkBbMNYK/view?usp=share_link	agendas/2023_06_07_HESS_agenda.pdf	agenda_markdowns/2023_06_07_HESS_agenda.md	2023-06-07	40.7041165	-73.9866887	14, Jay Street, Dumbo, Brooklyn, Kings County, City of New York, New York, 11201, United States	11201
NEW YORK STATE LIQUOR LICENSE APPLICATION REVIEWS	Belli	860 Fulton	https://goo.gl/maps/m1mjwZt3S5T9GEp96	Liquor, Wine, Beer & Cider	https://drive.google.com/file/d/1A3VOn6bsGq8DZWQPB_H5DBG6Xgd80ukF/view?usp=share_link	agendas/2023_06_07_HESS_agenda.pdf	agenda_markdowns/2023_06_07_HESS_agenda.md	2023-06-07	40.6833135	-73.9666805	Masa Empanadas, 860, Fulton Street, Prospect Heights, Brooklyn, Kings County, City of New York, New York, 11238, United States	11238
NEW YORK STATE LIQUOR LICENSE APPLICATION REVIEWS	Junsui	65 Jay	https://goo.gl/maps/x9X8aEgeX2YwnRHLA	Liquor, Wine, Beer & Cider	https://drive.google.com/file/d/1lpYybfcSFYEx1VTxta1vEZTPHF0XQaZW/view?usp=share_link	agendas/2023_06_07_HESS_agenda.pdf	agenda_markdowns/2023_06_07_HESS_agenda.md	2023-06-07	40.7028373	-73.9863619	65, Jay Street, Dumbo, Brooklyn, Kings County, City of New York, New York, 11201, United States	11201
NEW YORK STATE LIQUOR LICENSE APPLICATION REVIEWS	Socialites Lounge	857 Atlantic	https://goo.gl/maps/AxAFbRHBiVGygZxq6	Liquor, Wine, Beer & Cider	https://drive.google.com/file/d/1CDikTlvZ4eb5wD5VHK_67rcJfuuEYxRq/view?usp=share_link	agendas/2023_06_07_HESS_agenda.pdf	agenda_markdowns/2023_06_07_HESS_agenda.md	2023-06-07	40.6815343	-73.9650713	857, Atlantic Avenue, Prospect Heights, Brooklyn, Kings County, City of New York, New York, 11238, United States	11238
NEW YORK STATE LIQUOR LICENSE APPLICATION REVIEWS	Love & Dough	68 Jay	https://goo.gl/maps/v56ea1hJj7AsiUDZ6	Liquor, Wine, Beer & Cider		agendas/2023_06_07_HESS_agenda.pdf	agenda_markdowns/2023_06_07_HESS_agenda.md	2023-06-07	40.7027551	-73.9868908	Burrow, 68, Jay Street, Dumbo, Brooklyn, Kings County, City of New York, New York, 11201, United States	11201
NEW YORK STATE LIQUOR LICENSE APPLICATION REVIEWS	Kinjo	11 Adams	https://goo.gl/maps/DAvsvnA7pBGRT6si9	Liquor, Wine, Beer & Cider		agendas/2023_06_07_HESS_agenda.pdf	agenda_markdowns/2023_06_07_HESS_agenda.md	2023-06-07	40.7041614	-73.9885456	11, Adams Street, Dumbo, Brooklyn, Kings County, City of New York, New York, 11201, United States	11201
Expansion Onto Municipal Property (EMP):	Taqueria Fort Greene	154 Carlton	https://goo.gl/maps/yreY1UNkXnGn98oe9	Expansion Onto Municipal Property (EMP)	https://drive.google.com/file/d/1J1S9cPhrz6CbWt_7rVUBfOuz8VlLIyOJ/view?usp=share_link	agendas/2023_06_07_HESS_agenda.pdf	agenda_markdowns/2023_06_07_HESS_agenda.md	2023-06-07	40.6930017	-73.9729655	Taqueria Fort Greene, 154, Carlton Avenue, Fort Greene, Brooklyn, Kings County, City of New York, New York, 11205, United States	11205
Expansion Onto Municipal Property (EMP):	Beepublic	181 Front	https://goo.gl/maps/e9U8hGcGoEKwrTfa8	Expansion Onto Municipal Property (EMP)		agendas/2023_06_07_HESS_agenda.pdf	agenda_markdowns/2023_06_07_HESS_agenda.md	2023-06-07	40.7025543	-73.9859841	181, Front Street, Dumbo, Brooklyn, Kings County, City of New York, New York, 11201, United States	11201
PUBLIC REVIEW: NY State Cannabis Retail License Applications	Puro Vita Enterprises Inc	288 Flushing	https://goo.gl/maps/meCX8GYKPdTaKHit5	Cannabis Retail License	https://drive.google.com/file/d/1mKoh9MQbKqUmNE417qXOC8Dt0nP3REyZ/view?usp=drive_link	agendas/2023_09_06_HESS_agenda.pdf	agenda_markdowns/2023_09_06_HESS_agenda.md	2023-09-06	40.6976159	-73.9642373	288, Flushing Avenue, Brooklyn Navy Yard, Brooklyn, Kings County, City of New York, New York, 11205, United States	11205
PUBLIC REVIEW: NY State Cannabis Retail License Applications	Are We Good Enterprises Inc	154 Vanderbilt	https://goo.gl/maps/8zEhcAKMWkwEL7SD7	Cannabis Retail License	https://drive.google.com/file/d/1f4LBn-dY8V2CUiph75iojV6vl0MT8L5Z/view?usp=drive_link	agendas/2023_09_06_HESS_agenda.pdf	agenda_markdowns/2023_09_06_HESS_agenda.md	2023-09-06	40.6928312	-73.9699761	154, Vanderbilt Avenue, Clinton Hill, Brooklyn, Kings County, City of New York, New York, 11205, United States	11205
PUBLIC REVIEW: NY State Cannabis Retail License Applications	YMRM Dispensary LLC	436 Albee Sq W	https://goo.gl/maps/UnryY2H32sDDQ2Yy6	Cannabis Retail License	https://drive.google.com/file/d/1r4cSnTSCTJjW1579DK8Mx8C7BbAiELjR/view?usp=drive_link	agendas/2023_09_06_HESS_agenda.pdf	agenda_markdowns/2023_09_06_HESS_agenda.md	2023-09-06	40.6907947	-73.9836178	436, Albee Square, Downtown Brooklyn, Brooklyn, Kings County, City of New York, New York, 11201, United States	11201
PUBLIC REVIEW: NY State Liquor License Applications	Meg Hospitality	138 Montague	https://goo.gl/maps/K9PJQbCNFNvPvZ5R9	NY State Liquor License Applications	https://drive.google.com/file/d/1_4FaftDWW3buEKrJd2PAfITf__ylKC8l/view?usp=drive_link	agendas/2023_09_06_HESS_agenda.pdf	agenda_markdowns/2023_09_06_HESS_agenda.md	2023-09-06	40.6944483	-73.99383	138, Montague Street, Brooklyn Heights, Brooklyn, Kings County, City of New York, New York, 11201, United States	11201
PUBLIC REVIEW: NY State Liquor License Applications	DIG CityPoint	138 Willoughby	https://goo.gl/maps/mAgqhayWagcSQCKk6	NY State Liquor License Applications	https://drive.google.com/file/d/1U-7O8xxRVxXNMEElsx_-bgTRh3Lu2EXw/view?usp=drive_link	agendas/2023_09_06_HESS_agenda.pdf	agenda_markdowns/2023_09_06_HESS_agenda.md	2023-09-06	40.6919106	-73.9832147	Dig, 138, Willoughby Street, Downtown Brooklyn, Brooklyn, Kings County, City of New York, New York, 11201, United States	11201
PUBLIC REVIEW: NY State Liquor License Applications	Wonder	310 Schermerhorn	https://goo.gl/maps/XejrbURWdzLvRtTf9	NY State Liquor License Applications	https://drive.google.com/file/d/1u0aqliHYC44CWLeN75oZ02n8zwjKnW9H/view?usp=drive_link	agendas/2023_09_06_HESS_agenda.pdf	agenda_markdowns/2023_09_06_HESS_agenda.md	2023-09-06	40.6873422	-73.9822061	Wonder, 310, Schermerhorn Street, Boerum Hill, Brooklyn, Kings County, City of New York, New York, 11217, United States	11217
PUBLIC REVIEW: NY State Liquor License Applications	Padel Haus	257 Water	https://goo.gl/maps/1Bea5CqtAXLRRrx18	NY State Liquor License Applications	https://drive.google.com/file/d/1CH4vBz9KBQ-X39NYJ2eau-XLngW9iW88/view?usp=drive_link	agendas/2023_09_06_HESS_agenda.pdf	agenda_markdowns/2023_09_06_HESS_agenda.md	2023-09-06	40.7030982	-73.9841889	257, Water Street, Dumbo, Brooklyn, Kings County, City of New York, New York, 11201, United States	11201
PUBLIC REVIEW: NY State Liquor License Applications	Cuban Shack	75 Hoyt	https://goo.gl/maps/ow3Bu4L5hLd142G3A	NY State Liquor License Applications	https://drive.google.com/file/d/18CsGrJrjPBBibi8vF0YV9VS8DPHJpHxG/view?usp=drive_link	agendas/2023_09_06_HESS_agenda.pdf	agenda_markdowns/2023_09_06_HESS_agenda.md	2023-09-06	40.6881953	-73.9865851	Cuban Shack, 75, Hoyt Street, Boerum Hill, Brooklyn, Kings County, City of New York, New York, 11231, United States	11231
PUBLIC REVIEW: NY State Liquor License Applications	Charoen Thong Group LLC	747 Fulton	https://goo.gl/maps/V8QAgoLt2tgFBok9A	NY State Liquor License Applications	https://drive.google.com/file/d/1yMWdi8MopeBy0TBascTbyaXXznNZjF8p/view?usp=drive_link	agendas/2023_09_06_HESS_agenda.pdf	agenda_markdowns/2023_09_06_HESS_agenda.md	2023-09-06	40.6865972	-73.9747886	Brooklyn Thai-ger, 747, Fulton Street, Fort Greene, Brooklyn, Kings County, City of New York, New York, 11217, United States	11217
PUBLIC REVIEW: NY State Liquor License Applications	Ruta Oaxaca	138 Smith	https://goo.gl/maps/vjZJ2nRzeH2NBGVt8	NY State Liquor License Applications	https://drive.google.com/file/d/1kcrN5a4oWbWhbXe_loFwQW_dCEMpltGf/view?usp=drive_link	agendas/2023_09_06_HESS_agenda.pdf	agenda_markdowns/2023_09_06_HESS_agenda.md	2023-09-06	40.687123	-73.990428	138, Smith Street, Boerum Hill, Brooklyn, Kings County, City of New York, New York, 11201, United States	11201
PUBLIC REVIEW: NY State Liquor License Applications	Casanara	983 Fulton	https://goo.gl/maps/6i5C5PqknTJhCM4i8	NY State Liquor License Applications	https://drive.google.com/file/d/1kJAKmJd8Q2JjGYoeQkhFyFP_1T_j1vUj/view?usp=drive_link	agendas/2023_09_06_HESS_agenda.pdf	agenda_markdowns/2023_09_06_HESS_agenda.md	2023-09-06	40.6829071	-73.9635306	983, Fulton Street, Prospect Heights, Brooklyn, Kings County, City of New York, New York, 11238, United States	11238
PUBLIC REVIEW: NY State Liquor License Applications	Ikigai	87 Lafayette	https://goo.gl/maps/yc2Db6Bq6rx7CpSC7	NY State Liquor License Applications	https://drive.google.com/file/d/1YlSlEV1It1D4emv8vJ-KdNyuAxk65eR8/view?usp=drive_link	agendas/2023_09_06_HESS_agenda.pdf	agenda_markdowns/2023_09_06_HESS_agenda.md	2023-09-06	40.6873818	-73.9748893	87, Lafayette Avenue, Fort Greene, Brooklyn, Kings County, City of New York, New York, 11217, United States	11217
PUBLIC REVIEW: NY State Liquor License Applications	ABC Kitchen	55 Water	https://goo.gl/maps/qSwVsKG2iLqEjX819	NY State Liquor License Applications	https://drive.google.com/file/d/1AYS4xpQwuC10UUrPCjglu26wLKRipFBC/view?usp=drive_link	agendas/2023_09_06_HESS_agenda.pdf	agenda_markdowns/2023_09_06_HESS_agenda.md	2023-09-06	40.7035408	-73.9919894	Empire Stores, 55, Water Street, Dumbo, Brooklyn, Kings County, City of New York, New York, 11201, United States	11201
PUBLIC REVIEW: NY State Liquor License Applications	Sukh Thai	723 Fulton	https://goo.gl/maps/Gt2oSkxcDKJmz5DXA	NY State Liquor License Applications	https://drive.google.com/file/d/1mrsMwobDdu6kF-6V3baS_pWVDrcwv6x8/view?usp=drive_link	agendas/2023_09_06_HESS_agenda.pdf	agenda_markdowns/2023_09_06_HESS_agenda.md	2023-09-06	40.6873062	-73.9763732	723, Fulton Street, Fort Greene, Brooklyn, Kings County, City of New York, New York, 11217, United States	11217
PUBLIC REVIEW: NY State Liquor License Applications	Casa Nono	499 Myrtle	https://goo.gl/maps/TvLRoMpDpXKQWycr9	NY State Liquor License Applications	https://drive.google.com/file/d/19ib1l5CfCHI3Hbhnfre89wt5d-ePxbBs/view?usp=drive_link	agendas/2023_09_06_HESS_agenda.pdf	agenda_markdowns/2023_09_06_HESS_agenda.md	2023-09-06	40.6936537	-73.9651702	Casa NoNo, 499, Myrtle Avenue, Clinton Hill, Brooklyn, Kings County, City of New York, New York, 11205, United States	11205
PUBLIC REVIEW: NY State Liquor License Applications	Beepublic	181 Front	https://goo.gl/maps/e9U8hGcGoEKwrTfa8	NY State Liquor License Applications	https://drive.google.com/file/d/13-2YBXOfNzx0TyWGc7b_8Z1MKs2QOJp3/view?usp=drive_link	agendas/2023_09_06_HESS_agenda.pdf	agenda_markdowns/2023_09_06_HESS_agenda.md	2023-09-06	40.7025543	-73.9859841	181, Front Street, Dumbo, Brooklyn, Kings County, City of New York, New York, 11201, United States	11201
NY State Cannabis Retail License Applications	DLD DH, Inc. (DBA Devil's Harvest)	332 Myrtle	https://maps.app.goo.gl/Y1YosJQN4r9zkAkC7	Cannabis Retail License		agendas/2023_10_04_HESS_agenda.pdf	agenda_markdowns/2023_10_04_HESS_agenda.md	2023-10-04	40.6930863	-73.973223	332, Myrtle Avenue, Fort Greene, Brooklyn, Kings County, City of New York, New York, 11205, United States	11205
NY State Liquor License Applications	Love & Dough	68 Jay	https://goo.gl/maps/1Wem4tG34purugyM9	Liquor License Application	https://drive.google.com/file/d/1huFe0GCnmI2XR4gStYBZFQXDcANtRNNN/view?usp=drive_link	agendas/2023_10_04_HESS_agenda.pdf	agenda_markdowns/2023_10_04_HESS_agenda.md	2023-10-04	40.7027551	-73.9868908	Burrow, 68, Jay Street, Dumbo, Brooklyn, Kings County, City of New York, New York, 11201, United States	11201
NY State Liquor License Applications	Joy Hospitality	229 Dekalb	https://goo.gl/maps/rNq1RXsV71BAHLKu6	Liquor License Application		agendas/2023_10_04_HESS_agenda.pdf	agenda_markdowns/2023_10_04_HESS_agenda.md	2023-10-04	40.6896209	-73.9703377	Heritage Wines, 229, DeKalb Avenue, Fort Greene, Brooklyn, Kings County, City of New York, New York, 11205, United States	11205
NY State Liquor License Applications	Rhodora Wine Bar	45 Willoughby	https://goo.gl/maps/9r6byAHqM3v4MqbJ8	Liquor License Application		agendas/2023_10_04_HESS_agenda.pdf	agenda_markdowns/2023_10_04_HESS_agenda.md	2023-10-04	40.6917215	-73.9712928	45, Willoughby Avenue, Fort Greene, Brooklyn, Kings County, City of New York, New York, 11205, United States	11205
NY State Liquor License Applications	Rustik Tavern	141 Flushing	https://goo.gl/maps/Dunroi5S2Z8kmeLf8	Liquor License Application	https://drive.google.com/file/d/1o_CGVX6EMG92RIjDE26V1dk8QMmFiUP-/view?usp=drive_link	agendas/2023_10_04_HESS_agenda.pdf	agenda_markdowns/2023_10_04_HESS_agenda.md	2023-10-04	40.6985851	-73.9711478	Building 77, 141, Flushing Avenue, Brooklyn Navy Yard, Brooklyn, Kings County, City of New York, New York, 11205, United States	11205
NY State Liquor License Applications	HNY Ferry II LLC	63 Flushing	https://goo.gl/maps/Mx99a2e48qmAhzLT8	Liquor License Application		agendas/2023_10_04_HESS_agenda.pdf	agenda_markdowns/2023_10_04_HESS_agenda.md	2023-10-04	40.6983825	-73.9726875	Honeybee Robotics, 63, Flushing Avenue, Brooklyn Navy Yard, Brooklyn, Kings County, City of New York, New York, 11205, United States	11205
NY State Liquor License Applications	Applebee's	139 Flatbush	https://maps.app.goo.gl/vMJ5Esb1K5p6J2jk7	Liquor License Application		agendas/2023_10_04_HESS_agenda.pdf	agenda_markdowns/2023_10_04_HESS_agenda.md	2023-10-04	40.6844949	-73.9777657	Atlantic Avenue–Barclays Center, 139, Flatbush Avenue, Fort Greene, Brooklyn, Kings County, City of New York, New York, 11243, United States	11243
NY State Cannabis Retail License Applications	Xander Legacy	946 Fulton	https://maps.app.goo.gl/Szz6LoawAPKtspe96	Cannabis Retail License	https://drive.google.com/file/d/1JSmt8lR1E4xN4_qdwAmt_pzMPx6VXkKP/view?usp=drive_link	agendas/2024_01_03_HESS_agenda.pdf	agenda_markdowns/2024_01_03_HESS_agenda.md	2024-01-03	40.6824458	-73.9630059	946, Fulton Street, Prospect Heights, Brooklyn, Kings County, City of New York, New York, 11238, United States	11238
NY State Cannabis Retail License Applications	Buzzy NY, LLC	137 Court	https://maps.app.goo.gl/zUcwibwD1J31X7cD6	Cannabis Retail License	https://drive.google.com/file/d/1eq2vKed8arLdt9E7RSBIlD9ZIOp4hVYf/view?usp=drive_link	agendas/2024_01_03_HESS_agenda.pdf	agenda_markdowns/2024_01_03_HESS_agenda.md	2024-01-03	40.6894927	-73.9922789	137, Court Street, Cobble Hill Historic District, Brooklyn, Kings County, City of New York, New York, 11201, United States	11201
PUBLIC REVIEW and COMMITTEE ACTIONS	Fly Private Social	240 Dekalb	https://maps.app.goo.gl/t3GcVEWN54qdmC8Q6	Liquor, Wine, Beer & Cider	https://drive.google.com/file/d/1LBHfD9rnB8qqzB67zJvYj-RVGao9nEXb/view?usp=drive_link	agendas/2024_02_07_HESS_agenda.pdf	agenda_markdowns/2024_02_07_HESS_agenda.md	2024-02-07	40.6893239	-73.9695619	240, DeKalb Avenue, Fort Greene, Brooklyn, Kings County, City of New York, New York, 11205, United States	11205
PUBLIC REVIEW and COMMITTEE ACTIONS	50 Slices LLC	50 Henry	https://maps.app.goo.gl/yV3CyydQDb36hp5x5	Liquor, Wine, Beer & Cider	https://drive.google.com/file/d/1Ec1yvGr-HaAIRs0xjcAqBYe5qOpCgcWb/view?usp=drive_link	agendas/2024_02_07_HESS_agenda.pdf	agenda_markdowns/2024_02_07_HESS_agenda.md	2024-02-07	40.7207902	-73.9424641	50, North Henry Street, Williamsburg, Brooklyn, Kings County, City of New York, New York, 11222, United States	11222
PUBLIC REVIEW and COMMITTEE ACTIONS	Le Baba Cool, Inc	33 Lafayette	https://maps.app.goo.gl/fTqGbFCYxgEjutX4A	Liquor, Wine, Beer & Cider	https://drive.google.com/file/d/1sVsGAEL5pgbzjXr20a7tUimegkgi76eE/view?usp=drive_link	agendas/2024_02_07_HESS_agenda.pdf	agenda_markdowns/2024_02_07_HESS_agenda.md	2024-02-07	40.6870514	-73.9776817	33, Lafayette Avenue, Fort Greene, Brooklyn, Kings County, City of New York, New York, 11217, United States	11217
PUBLIC REVIEW and COMMITTEE ACTIONS	20 Jay St Wine	28 Jay	https://maps.app.goo.gl/1cDW4vPUyafBr7hV8	Wine, Beer & Cider	https://drive.google.com/file/d/1OfivLz_kBrxkyDLfBOUDZR5RLXojsYbh/view?usp=drive_link	agendas/2024_02_07_HESS_agenda.pdf	agenda_markdowns/2024_02_07_HESS_agenda.md	2024-02-07	40.703885	-73.986707	28, Jay Street, Dumbo, Brooklyn, Kings County, City of New York, New York, 11201, United States	11201
PUBLIC REVIEW and COMMITTEE ACTIONS	SMOR	18 Putnam	https://maps.app.goo.gl/H9M5ryCdb6uRjEBj8	Wine, Beer & Cider	https://drive.google.com/file/d/1oLfaVaVIY0ijlE58kPSDqYOBt7qxFjK1/view?usp=drive_link	agendas/2024_02_07_HESS_agenda.pdf	agenda_markdowns/2024_02_07_HESS_agenda.md	2024-02-07	40.6826773	-73.9610727	18, Putnam Avenue, Clinton Hill, Brooklyn, Kings County, City of New York, New York, 11238, United States	11238
PUBLIC REVIEW and COMMITTEE ACTIONS	Buka	763 Fulton	https://maps.app.goo.gl/t4fauosYrgQFuW4b6	Wine, Beer & Cider	https://drive.google.com/file/d/178qw5TXjQIP_pbWvLV9Hwosu6KhGOtcW/view?usp=drive_link	agendas/2024_02_07_HESS_agenda.pdf	agenda_markdowns/2024_02_07_HESS_agenda.md	2024-02-07	40.6863302	-73.9740573	763, Fulton Street, Fort Greene, Brooklyn, Kings County, City of New York, New York, 11217, United States	11217
PUBLIC REVIEW and COMMITTEE ACTIONS	Khaosan	128 Montague	https://maps.app.goo.gl/CrmcuHzwNnPzKwAd6	CHANGE		agendas/2024_02_07_HESS_agenda.pdf	agenda_markdowns/2024_02_07_HESS_agenda.md	2024-02-07	40.6945776	-73.9942536	128, Montague Street, Brooklyn Heights, Brooklyn, Kings County, City of New York, New York, 11201, United States	11201
PUBLIC REVIEW and COMMITTEE ACTION	Society House	436 Albee Sq West	https://maps.app.goo.gl/j6B5o1hgJfmQLegH6	CAURD-Provisional	https://drive.google.com/file/d/14e_bRM2mZ-gBSiN0TH5n0RJfkjIXFKc_/view?usp=drive_link	agendas/2024_03_06_HESS_agenda.pdf	agenda_markdowns/2024_03_06_HESS_agenda.md	2024-03-06	40.6907947	-73.9836178	436, Albee Square, Downtown Brooklyn, Brooklyn, Kings County, City of New York, New York, 11201, United States	11201
PUBLIC REVIEW and COMMITTEE ACTIONS	Tipsy Grape	110 Smith	https://maps.app.goo.gl/U3Q5g6frbBGM2sAQ6	CLASS	https://drive.google.com/file/d/1bqsYV8V2KYGTsvXzUqzopGWpOcr256Pb/view?usp=drive_link	agendas/2024_03_06_HESS_agenda.pdf	agenda_markdowns/2024_03_06_HESS_agenda.md	2024-03-06	40.6880061	-73.9899082	110, Smith Street, Boerum Hill, Brooklyn, Kings County, City of New York, New York, 11201, United States	11201
PUBLIC REVIEW and COMMITTEE ACTIONS	Lady Wortley LLC	148 Montague	https://maps.app.goo.gl/hJkFDGfdY3uSVHug7	Liquor, Wine, Beer & Cider	https://drive.google.com/file/d/1Xj_cSM6FRw28t8F7Yx4tD0pXRYkxGsts/view?usp=drive_link	agendas/2024_03_06_HESS_agenda.pdf	agenda_markdowns/2024_03_06_HESS_agenda.md	2024-03-06	40.6943376	-73.9934019	148, Montague Street, Brooklyn Heights, Brooklyn, Kings County, City of New York, New York, 11201, United States	11201
PUBLIC REVIEW and COMMITTEE ACTIONS	Donburi Lab	142 Montague	https://maps.app.goo.gl/cDZ5fu8hwipAca4j9	WBC / Early Closure	https://drive.google.com/file/d/1JFFgpo7suzpoda0ty7dD6bz3-Co9tNam/view?usp=drive_link	agendas/2024_03_06_HESS_agenda.pdf	agenda_markdowns/2024_03_06_HESS_agenda.md	2024-03-06	40.6944137	-73.9936549	142, Montague Street, Brooklyn Heights, Brooklyn, Kings County, City of New York, New York, 11201, United States	11201
PUBLIC REVIEW and COMMITTEE ACTIONS	Osteria Dekalb	445 Gold	https://maps.app.goo.gl/G4re1qmeouNf3Mo68	LWBC / Umbrella + Early Closure	https://drive.google.com/file/d/1thCkA1tIGJATlspvpXr5HEmy5A_WLHef/view?usp=drive_link	agendas/2024_03_06_HESS_agenda.pdf	agenda_markdowns/2024_03_06_HESS_agenda.md	2024-03-06	40.693314	-73.9833812	One Medical: City Point Brooklyn, 445, Gold Street, Downtown Brooklyn, Brooklyn, Kings County, City of New York, New York, 11201, United States	11201
PUBLIC REVIEW and COMMITTEE ACTIONS	Cafe Buon Gusto	311 Henry	https://maps.app.goo.gl/kKSMru9GVdxTWM2j8	Wine, Beer & Cider	https://drive.google.com/file/d/1CkSu2k1cyUNwaPdfrj24_Hrr2kC_DrD_/view?usp=drive_link	agendas/2024_04_03_HESS_agenda.pdf	agenda_markdowns/2024_04_03_HESS_agenda.md	2024-04-03	40.6910419	-73.9959444	311, Henry Street, Brooklyn Heights, Brooklyn, Kings County, City of New York, New York, 11201, United States	11201
PUBLIC REVIEW and COMMITTEE ACTIONS	RA Theatre Corp	68 Jay #117	https://maps.app.goo.gl/QJJuTfWdoL9CNeFi9	Wine, Beer & Cider	https://drive.google.com/file/d/1GzgRTrRTB1UXNrxic4Yd8qWEqTsIVGFE/view?usp=drive_link	agendas/2024_04_03_HESS_agenda.pdf	agenda_markdowns/2024_04_03_HESS_agenda.md	2024-04-03	40.7027551	-73.9868908	Burrow, 68, Jay Street, Dumbo, Brooklyn, Kings County, City of New York, New York, 11201, United States	11201
PUBLIC REVIEW and COMMITTEE ACTIONS	Taylormade	222-226 Greene	https://maps.app.goo.gl/uLn8MGv9kCC4u7f39	Liquor, Wine, Beer & Cider		agendas/2024_04_03_HESS_agenda.pdf	agenda_markdowns/2024_04_03_HESS_agenda.md	2024-04-03	40.6907711	-73.9766245	Fort Greene, Brooklyn, Kings County, City of New York, New York, United States	None
PUBLIC REVIEW and COMMITTEE ACTIONS	Buffalo Wild Wings	139 Flatbush	https://maps.app.goo.gl/NypcGCSMq4uTcRTj6	Liquor, Wine, Beer & Cider		agendas/2024_04_03_HESS_agenda.pdf	agenda_markdowns/2024_04_03_HESS_agenda.md	2024-04-03	40.6844949	-73.9777657	Atlantic Avenue–Barclays Center, 139, Flatbush Avenue, Fort Greene, Brooklyn, Kings County, City of New York, New York, 11243, United States	11243
PUBLIC REVIEW and COMMITTEE ACTIONS	Life Time Fitness	18 Sixth	https://maps.app.goo.gl/dZkVbH3c39dYU4xu5	Wine, Beer & Cider		agendas/2024_04_03_HESS_agenda.pdf	agenda_markdowns/2024_04_03_HESS_agenda.md	2024-04-03				None
PUBLIC REVIEW and COMMITTEE ACTIONS	Siam Harbour Corp	9 Old Fulton	https://maps.app.goo.gl/XYvti8	Liquor, Wine, Beer & Cider	https://drive.google.com/file/d/19E2mZS--_CvhvcQCh9wr5ufOiDesrgcg/view?usp=drive_link	agendas/2024_05_01_HESS_agenda.pdf	agenda_markdowns/2024_05_01_HESS_agenda.md	2024-05-01	40.7029568	-73.9937613	9, Old Fulton Street, Dumbo, Brooklyn, Kings County, City of New York, New York, 11201, United States	11201
PUBLIC REVIEW and COMMITTEE ACTIONS	Siam Harbour Corp	9 Old Fulton	https://maps.app.goo.gl/XYvti8	Wine, Beer & Cider	https://drive.google.com/file/d/19E2mZS--_CvhvcQCh9wr5ufOiDesrgcg/view?usp=drive_link	agendas/2024_05_01_HESS_agenda.pdf	agenda_markdowns/2024_05_01_HESS_agenda.md	2024-05-01	40.7029568	-73.9937613	9, Old Fulton Street, Dumbo, Brooklyn, Kings County, City of New York, New York, 11201, United States	11201
PUBLIC REVIEW and COMMITTEE ACTIONS	Third Falcon	360 Myrtle	https://maps.app.goo.gl/js67KbstJYaTkjDz6	Wine, Beer & Cider	https://drive.google.com/file/d/1cmiFJjuqQwGFnwp5adUmr85gnymTY3Ox/view?usp=drive_link	agendas/2024_05_01_HESS_agenda.pdf	agenda_markdowns/2024_05_01_HESS_agenda.md	2024-05-01	40.6930882	-73.9720057	Cafefornia, 360, Myrtle Avenue, Fort Greene, Brooklyn, Kings County, City of New York, New York, 11205, United States	11205
PUBLIC REVIEW and COMMITTEE ACTIONS	Habana Outpost	757 Fulton	https://maps.app.goo.gl/6Ddtn3VYVc7q1zZW8	Liquor, Wine, Beer & Cider		agendas/2024_05_01_HESS_agenda.pdf	agenda_markdowns/2024_05_01_HESS_agenda.md	2024-05-01	40.6864478	-73.974163	757, Fulton Street, Fort Greene, Brooklyn, Kings County, City of New York, New York, 11217, United States	11217
PUBLIC REVIEW and COMMITTEE ACTIONS	Waza Sushi & Ramen	485 Myrtle	https://maps.app.goo.gl/25fJCxEZUk1KZPbn6	Wine, Beer & Cider		agendas/2024_05_01_HESS_agenda.pdf	agenda_markdowns/2024_05_01_HESS_agenda.md	2024-05-01	40.6936582	-73.9657479	485, Myrtle Avenue, Clinton Hill, Brooklyn, Kings County, City of New York, New York, 11205, United States	11205
PUBLIC REVIEW and COMMITTEE ACTION	START Treatment & Recovery Centers			NY State Office of Addiction Services & Supports	https://drive.google.com/file/d/1ma-cCBn10WmBFm0qxJE2ikO3cqGK3dXP/view?usp=drive_link	agendas/2024_06_05_HESS_agenda.pdf	agenda_markdowns/2024_06_05_HESS_agenda.md	2024-06-05				None
PUBLIC REVIEW and COMMITTEE ACTIONS	Habana Outpost	757 Fulton	https://maps.app.goo.gl/6Ddtn3VYVc7q1zZW8	Liquor, Wine, Beer & Cider	https://drive.google.com/file/d/1h943z2bOzjMlYRQKmg0rYwGENDDyzT8g/view?usp=drive_link	agendas/2024_06_05_HESS_agenda.pdf	agenda_markdowns/2024_06_05_HESS_agenda.md	2024-06-05	40.6864478	-73.974163	757, Fulton Street, Fort Greene, Brooklyn, Kings County, City of New York, New York, 11217, United States	11217
PUBLIC REVIEW and COMMITTEE ACTIONS	Golden Ratio	216 1/2 Greene	https://maps.app.goo.gl/i8CrvpaahNCwHL2a9	Liquor, Wine, Beer & Cider	https://drive.google.com/file/d/1kOTanw5ReGAA3c3onCXVsDaFnRUUc8ZO/view?usp=drive_link	agendas/2024_06_05_HESS_agenda.pdf	agenda_markdowns/2024_06_05_HESS_agenda.md	2024-06-05	40.6869571	-73.9626851	Green Valley Market, 216 1/2, Greene Avenue, Clinton Hill, Brooklyn, Kings County, City of New York, New York, 11238, United States	11238
PUBLIC REVIEW and COMMITTEE ACTIONS	Waza Sushi & Ramen	485 Myrtle	https://maps.app.goo.gl/25fJCxEZUk1KZPbn6	Wine, Beer & Cider	https://drive.google.com/file/d/1z6_-imlcrdfuYdsGXtWdgQYltnmwmMse/view?usp=drive_link	agendas/2024_06_05_HESS_agenda.pdf	agenda_markdowns/2024_06_05_HESS_agenda.md	2024-06-05	40.6936582	-73.9657479	485, Myrtle Avenue, Clinton Hill, Brooklyn, Kings County, City of New York, New York, 11205, United States	11205
PUBLIC REVIEW and COMMITTEE ACTION	Sands House	101 Willoughby	https://maps.app.goo.gl/oQQjZfRBpEjkraW96	NY State Office of Addiction Services & Supports	https://drive.google.com/file/d/1FMLkOqzxKaSFkfynhoMDKumh8OqycZwU/view?usp=drive_link	agendas/2024_09_04_HESS_agenda.pdf	agenda_markdowns/2024_09_04_HESS_agenda.md	2024-09-04	40.691743	-73.967387	101, Willoughby Avenue, Fort Greene, Brooklyn, Kings County, City of New York, New York, 11205, United States	11205
PUBLIC REVIEW and COMMITTEE ACTIONS	DTCHONE LLC	530 Fulton	https://maps.app.goo.gl/to2v9JJru2egMgmW7	Cannabis Retail License	https://drive.google.com/file/d/1jLMtA7-5UFKlSTiAidYElx9EeWqoi2Ic/view?usp=drive_link	agendas/2024_09_04_HESS_agenda.pdf	agenda_markdowns/2024_09_04_HESS_agenda.md	2024-09-04	40.6890325	-73.9816286	530, Fulton Mall, Downtown Brooklyn, Brooklyn, Kings County, City of New York, New York, 11201, United States	11201
PUBLIC REVIEW and COMMITTEE ACTIONS	Soulmate	237 Dekalb	https://maps.app.goo.gl/yNnafbaN5nGEx46U6	Cannabis Retail License	https://drive.google.com/file/d/1DilgyTXdvePq9s9wQmYH2A9ewd5-tasc/view?usp=drive_link	agendas/2024_09_04_HESS_agenda.pdf	agenda_markdowns/2024_09_04_HESS_agenda.md	2024-09-04	40.6896417	-73.9697526	237, DeKalb Avenue, Fort Greene, Brooklyn, Kings County, City of New York, New York, 11205, United States	11205
PUBLIC REVIEW and COMMITTEE ACTIONS	NYCannaMeds	68 Jay	https://maps.app.goo.gl/ndoAUizA3p98ETGt9	Cannabis Retail License	https://drive.google.com/file/d/184F-JplHXwomnwHwYLi-J_zRV50XZyuU/view?usp=drive_link	agendas/2024_09_04_HESS_agenda.pdf	agenda_markdowns/2024_09_04_HESS_agenda.md	2024-09-04	40.7027551	-73.9868908	Burrow, 68, Jay Street, Dumbo, Brooklyn, Kings County, City of New York, New York, 11201, United States	11201
PUBLIC REVIEW and COMMITTEE ACTIONS	Nako LLC	18 Columbia Place		Wine, Beer & Cider	https://drive.google.com/file/d/1BXE4KfPDzr_TNUI_eflOyo3mCXy_I-4s/view?usp=drive_link	agendas/2024_09_04_HESS_agenda.pdf	agenda_markdowns/2024_09_04_HESS_agenda.md	2024-09-04	40.6932687	-73.9986496	18, Columbia Place, Brooklyn Heights, Brooklyn, Kings County, City of New York, New York, 11201, United States	11201
PUBLIC REVIEW and COMMITTEE ACTIONS	Yakiniku Hiro	210 Livingston	https://maps.app.goo.gl/C1bsJajYgrKXwuHB8	Liquor, Wine, Beer & Cider	https://drive.google.com/file/d/150BSKbEg6ZNbm2CS5dhUgIuAJVs-PzNY/view?usp=drive_link	agendas/2024_09_04_HESS_agenda.pdf	agenda_markdowns/2024_09_04_HESS_agenda.md	2024-09-04	40.6894744	-73.9856916	210, Livingston Street, Downtown Brooklyn, Brooklyn, Kings County, City of New York, New York, 11201, United States	11201
PUBLIC REVIEW and COMMITTEE ACTIONS	Neno's Gourmet Mexican	499 Myrtle	https://www.google.com/maps/place/499+Myrtle+Ave,+Brooklyn,+NY+11205/@40.693703,-73.9677397,17z/data=!3m1!4b1!4m6!3m5!1s0x89c25bc0ac4e755b:0x933ecd8d99022e99!8m2!3d40.693699!4d-73.9651648!16s%2Fg%2F11b8v5ssnv?entry=ttu	Liquor, Wine, Beer & Cider	https://drive.google.com/file/d/1HT4JbkxMPl7MJN903K0VxZ_FOjTIHgbM/view?usp=drive_link	agendas/2024_09_04_HESS_agenda.pdf	agenda_markdowns/2024_09_04_HESS_agenda.md	2024-09-04	40.6936537	-73.9651702	Casa NoNo, 499, Myrtle Avenue, Clinton Hill, Brooklyn, Kings County, City of New York, New York, 11205, United States	11205
PUBLIC REVIEW and COMMITTEE ACTIONS	Mango Bay Caribbean	271 Adelphi	https://maps.app.goo.gl/VhhV7t43hXAnFFLf7	Liquor, Wine, Beer & Cider	https://drive.google.com/file/d/1D24jqD-glshcUq5d1_oCeGY00Zt9DSNM/view?usp=drive_link	agendas/2024_09_04_HESS_agenda.pdf	agenda_markdowns/2024_09_04_HESS_agenda.md	2024-09-04	40.6893996	-73.9709433	Imani Caribbean Kitchen & Bar, 271, Adelphi Street, Fort Greene, Brooklyn, Kings County, City of New York, New York, 11205, United States	11205
PUBLIC REVIEW and COMMITTEE ACTION	Sands House	101 Willoughby	https://maps.app.goo.gl/oQQjZfRBpEjkraW96	NY State Office of Addiction Services & Supports		agendas/2024_10_02_HESS_agenda.pdf	agenda_markdowns/2024_10_02_HESS_agenda.md	2024-10-02	40.691743	-73.967387	101, Willoughby Avenue, Fort Greene, Brooklyn, Kings County, City of New York, New York, 11205, United States	11205
PUBLIC REVIEW and COMMITTEE ACTIONS	Fastlife Pizza LLC	995A Fulton		Wine, Beer & Cider	https://drive.google.com/file/d/1d72-dc-V9aETHVcb7hSRYLF5sCvciVpS/view?usp=drive_link	agendas/2024_10_02_HESS_agenda.pdf	agenda_markdowns/2024_10_02_HESS_agenda.md	2024-10-02	40.6828671	-73.9630425	995A, Fulton Street, Prospect Heights, Brooklyn, Kings County, City of New York, New York, 11238, United States	11238
PUBLIC REVIEW and COMMITTEE ACTIONS	Cachette	39 Clifton	https://maps.app.goo.gl/Wh4YbtsXdp9DdrtU8	Liquor, Wine, Beer & Cider	https://drive.google.com/file/d/1_39JtUfvE6DdKznTs7T6kVaXz5l6UO8b/view?usp=drive_link	agendas/2024_10_02_HESS_agenda.pdf	agenda_markdowns/2024_10_02_HESS_agenda.md	2024-10-02	40.6879326	-73.962875	Guevara's, 39, Clifton Place, Clinton Hill, Brooklyn, Kings County, City of New York, New York, 11238, United States	11238
PUBLIC REVIEW and COMMITTEE ACTIONS	NG Events LLC	63 Flushing	https://www.google.com/maps/place/63+Flushing+Ave,+Brooklyn,+NY+11201/@40.6984026,-73.9797732,17z/data=!3m1!4b1!4m6!3m5!1s0x89c25bc8bf2728ff:0xd4fff808687146c6!8m2!3d40.6983986!4d-73.9749023!16s%2Fg%2F11fx0pg36p?entry=ttu	Liquor, Wine, Beer & Cider		agendas/2024_10_02_HESS_agenda.pdf	agenda_markdowns/2024_10_02_HESS_agenda.md	2024-10-02	40.6983825	-73.9726875	Honeybee Robotics, 63, Flushing Avenue, Brooklyn Navy Yard, Brooklyn, Kings County, City of New York, New York, 11205, United States	11205
PUBLIC REVIEW and COMMITTEE ACTIONS	Malka Dumbo LLC	56 Adams	https://maps.app.goo.gl/QmQydM9o8KT3AHLJ6	Liquor, Wine, Beer & Cider		agendas/2024_10_02_HESS_agenda.pdf	agenda_markdowns/2024_10_02_HESS_agenda.md	2024-10-02	40.7025926	-73.9887274	Foragers Market, 56, Adams Street, Dumbo, Brooklyn, Kings County, City of New York, New York, 11201, United States	11201
PUBLIC REVIEW and COMMITTEE ACTION	Mad City Canna LLC	67 Jay	https://maps.app.goo.gl/wLvDrPZuenzBm6WD8	Cannabis Retail License		agendas/2024_11_06_HESS_agenda.pdf	agenda_markdowns/2024_11_06_HESS_agenda.md	2024-11-06	40.7027277	-73.9864056	67, Jay Street, Dumbo, Brooklyn, Kings County, City of New York, New York, 11201, United States	11201
PUBLIC REVIEW and COMMITTEE ACTIONS	St. James Selections	31 Rockwell	https://maps.app.goo.gl/8vGXFgULxK9VwL8eA	Liquor, Wine, Beer & Cider	https://drive.google.com/file/d/1e0QFx7XQrOqbV5SuFvNR1MirJRF39DOi/view?usp=drive_link	agendas/2024_11_06_HESS_agenda.pdf	agenda_markdowns/2024_11_06_HESS_agenda.md	2024-11-06	40.6890418	-73.9791225	The Rockwell Place, 31, Rockwell Place, Fort Greene, Brooklyn, Kings County, City of New York, New York, 11217, United States	11217
PUBLIC REVIEW and COMMITTEE ACTIONS	Malka Dumbo LLC	56 Adams	https://maps.app.goo.gl/QmQydM9o8KT3AHLJ6	Liquor, Wine, Beer & Cider	https://drive.google.com/file/d/1ZRljL7SUr2BWfVnxBV13WzzJ_9DbYF2g/view?usp=drive_link	agendas/2024_11_06_HESS_agenda.pdf	agenda_markdowns/2024_11_06_HESS_agenda.md	2024-11-06	40.7025926	-73.9887274	Foragers Market, 56, Adams Street, Dumbo, Brooklyn, Kings County, City of New York, New York, 11201, United States	11201
PUBLIC REVIEW and COMMITTEE ACTIONS	El Gallo Taqueria	117 Adams	https://maps.app.goo.gl/Ft4PrhdgYeRpJxyf6	Liquor, Wine, Beer & Cider		agendas/2024_11_06_HESS_agenda.pdf	agenda_markdowns/2024_11_06_HESS_agenda.md	2024-11-06	40.7005099	-73.9882196	117, Adams Street, Dumbo, Brooklyn, Kings County, City of New York, New York, 11201, United States	11201
PUBLIC REVIEW and COMMITTEE ACTIONS	Kofee	711 Fulton	https://maps.app.goo.gl/9kRNzBc6is7FZJ5q7	Wine, Beer & Cider	https://drive.google.com/file/d/187EYXwt4OyWrnwHsykNkcyz-Fju1bjh_/view?usp=drive_link	agendas/2024_11_06_HESS_agenda.pdf	agenda_markdowns/2024_11_06_HESS_agenda.md	2024-11-06	40.6874818	-73.9770272	711, Fulton Street, Fort Greene, Brooklyn, Kings County, City of New York, New York, 11217, United States	11217
PUBLIC REVIEW and COMMITTEE ACTION	Elevate Point	203 Jay St	https://maps.app.goo.gl/8rQRKDbd1yAV7vmA7	Behavioral Health Outpatient Program Application	https://drive.google.com/file/d/1VoTmhorfrszBkIkQKbYuFpVeoOYtb0ns/view?usp=drive_link	agendas/2024_12_04_HESS_agenda.pdf	agenda_markdowns/2024_12_04_HESS_agenda.md	2024-12-04	40.6981998	-73.9868804	203, Jay Street, Dumbo, Brooklyn, Kings County, City of New York, New York, 11201, United States	11201
PUBLIC REVIEW and COMMITTEE ACTIONS	Next Stop Vegan	88 Livingston	https://maps.app.goo.gl/51yoprtKU8DreWo99	Wine, Beer & Cider		agendas/2024_12_04_HESS_agenda.pdf	agenda_markdowns/2024_12_04_HESS_agenda.md	2024-12-04	40.691244	-73.9907458	88, Livingston Street, Downtown Brooklyn, Brooklyn, Kings County, City of New York, New York, 11201, United States	11201
PUBLIC REVIEW and COMMITTEE ACTIONS	Spice Grill	441 Myrtle	https://maps.app.goo.gl/KsgSMMuV4aPn8SWFA	Wine, Beer & Cider		agendas/2024_12_04_HESS_agenda.pdf	agenda_markdowns/2024_12_04_HESS_agenda.md	2024-12-04	40.6933333	-73.9680114	Spice & Grill, 441, Myrtle Avenue, Fort Greene, Brooklyn, Kings County, City of New York, New York, 11205, United States	11205
PUBLIC REVIEW and COMMITTEE ACTIONS	Ai Dining	20 Old Fulton	https://maps.app.goo.gl/9JQLSaw6eiPh9RP8A	Liquor, Wine, Beer & Cider		agendas/2024_12_04_HESS_agenda.pdf	agenda_markdowns/2024_12_04_HESS_agenda.md	2024-12-04	40.7025978	-73.9941382	% Arabica, 20, Old Fulton Street, Dumbo, Brooklyn, Kings County, City of New York, New York, 11201, United States	11201
PUBLIC REVIEW and COMMITTEE ACTIONS	Xochitl Taqueria	176 Smith	https://maps.app.goo.gl/hUffJ1qrm8obe1VMA	Liquor, Wine, Beer & Cider		agendas/2024_12_04_HESS_agenda.pdf	agenda_markdowns/2024_12_04_HESS_agenda.md	2024-12-04	40.6857481	-73.9913669	176, Smith Street, Boerum Hill, Brooklyn, Kings County, City of New York, New York, 11201, United States	11201
Eligible for Automatic Waiver of Local Review by District office	Discovery NY	21 Clark	https://maps.app.goo.gl/zXAekPjt7z7JLN3b7	Liquor, Wine, Beer & Cider	https://drive.google.com/file/d/1Up0xVRUJy98qiMXmk87tGDVtjDZmjuTz/view?usp=drive_link	agendas/2024_12_04_HESS_agenda.pdf	agenda_markdowns/2024_12_04_HESS_agenda.md	2024-12-04	40.6984106	-73.9950243	21, Clark Street, Brooklyn Heights, Brooklyn, Kings County, City of New York, New York, 11201, United States	11201
PUBLIC REVIEW and COMMITTEE ACTION	High of Brooklyn, LLC	64 Henry	https://maps.app.goo.gl/Q4T9Rtc7S7erH9Vg9	Cannabis Retail License	https://drive.google.com/file/d/1z-ptBIHFEWtdWkwlkUltITLiZUaoO1Lj/view?usp=drive_link	agendas/2025_01_07_HESS_agenda.pdf	agenda_markdowns/2025_01_07_HESS_agenda.md	2025-01-07	40.6990418	-73.9924972	64, Henry Street, Brooklyn Heights, Brooklyn, Kings County, City of New York, New York, 11201, United States	11201
PUBLIC REVIEW and COMMITTEE ACTIONS	Double Walker Beer LLC	415 Myrtle	https://maps.app.goo.gl/UyjUYxE57vdSw2RV8	Liquor, Wine, Beer & Cider	https://drive.google.com/file/d/1JwLwxYMMmEYNhdnmO4VfD8IVjYa0SuKR/view?usp=drive_link	agendas/2025_01_07_HESS_agenda.pdf	agenda_markdowns/2025_01_07_HESS_agenda.md	2025-01-07	40.6932916	-73.9692304	415, Myrtle Avenue, Fort Greene, Brooklyn, Kings County, City of New York, New York, 11205, United States	11205
PUBLIC REVIEW and COMMITTEE ACTIONS	Le Petit Monstre	82 Washington	https://maps.app.goo.gl/uAMXzQaGigd1obNv6	Liquor, Wine, Beer & Cider	https://drive.google.com/file/d/1GVm-Qe_iKyrbhWv2tMBCgNpXuPVHBYO9/view?usp=drive_link	agendas/2025_01_07_HESS_agenda.pdf	agenda_markdowns/2025_01_07_HESS_agenda.md	2025-01-07	40.6963493	-73.9676548	82, Washington Avenue, Clinton Hill, Brooklyn, Kings County, City of New York, New York, 11205, United States	11205
PUBLIC REVIEW and COMMITTEE ACTIONS	Wildblume	80 Montague	https://maps.app.goo.gl/sLeUQJ2fvrifKqbDA	Liquor, Wine, Beer & Cider	https://drive.google.com/file/d/1hCiY0SITK4ud9EOKabhw5__dcqRg1mLb/view?usp=drive_link	agendas/2025_01_07_HESS_agenda.pdf	agenda_markdowns/2025_01_07_HESS_agenda.md	2025-01-07	40.695111	-73.996258	80, Montague Street, Brooklyn Heights, Brooklyn, Kings County, City of New York, New York, 11201, United States	11201
PUBLIC REVIEW and COMMITTEE ACTIONS	Wildblume	80 Montague	https://maps.app.goo.gl/sLeUQJ2fvrifKqbDA	Wine, Beer & Cider	https://drive.google.com/file/d/1r48T_8uXX2MFTwpe0EZmPLmAojMTXiMb/view?usp=drive_link	agendas/2025_01_07_HESS_agenda.pdf	agenda_markdowns/2025_01_07_HESS_agenda.md	2025-01-07	40.695111	-73.996258	80, Montague Street, Brooklyn Heights, Brooklyn, Kings County, City of New York, New York, 11201, United States	11201
PUBLIC REVIEW and COMMITTEE ACTIONS	Sailor	228 Dekalb	https://maps.app.goo.gl/693dud7wxgAHP3hv5	Alteration	https://drive.google.com/file/d/1XqwGZXyxit7MAHo0354FbU3bifQtt4r6/view?usp=drive_link	agendas/2025_01_07_HESS_agenda.pdf	agenda_markdowns/2025_01_07_HESS_agenda.md	2025-01-07	40.6893919	-73.9703166	Sailor, 228, DeKalb Avenue, Fort Greene, Brooklyn, Kings County, City of New York, New York, 11205, United States	11205
PUBLIC REVIEW and COMMITTEE ACTIONS	Marlinspike Hall LLC	224 Dekalb	https://maps.app.goo.gl/GuBZPyzECMcZDiJGA	Wine, Beer & Cider		agendas/2025_01_07_HESS_agenda.pdf	agenda_markdowns/2025_01_07_HESS_agenda.md	2025-01-07	40.689395	-73.9704066	Mario's Pizzeria, 224, DeKalb Avenue, Fort Greene, Brooklyn, Kings County, City of New York, New York, 11205, United States	11205
PUBLIC REVIEW and COMMITTEE ACTIONS	Pearl Street	147 Front	https://maps.app.goo.gl/QWkJWLGc6UUqyfjY8	Wine, Beer & Cider	https://drive.google.com/file/d/1bx-hrEvX4mGpw09LO5Y6mF7T1ZEmgQYW/view?usp=drive_link	agendas/2025_02_04_HESS_agenda.pdf	agenda_markdowns/2025_02_04_HESS_agenda.md	2025-02-04	40.7025413	-73.9869796	147, Front Street, Dumbo, Brooklyn, Kings County, City of New York, New York, 11201, United States	11201
PUBLIC REVIEW and COMMITTEE ACTIONS	Little Pizza Parlor	192 Duffield	https://maps.app.goo.gl/Xqze8RovMiFnP7wg9	SDWLK	https://drive.google.com/file/d/1YfLO_ZqWfJUlywXw6BtXdcZZvhIGSyix/view?usp=drive_link	agendas/2025_02_04_HESS_agenda.pdf	agenda_markdowns/2025_02_04_HESS_agenda.md	2025-02-04	40.6923924	-73.9844501	192, Duffield Street, Downtown Brooklyn, Brooklyn, Kings County, City of New York, New York, 11201, United States	11201
PUBLIC REVIEW and COMMITTEE ACTIONS	Swamp Kitty LLC	222 Greene	https://maps.app.goo.gl/7wuQWeesNiCZmRuF9	Liquor, Wine, Beer & Cider	https://drive.google.com/file/d/1ezR4PCkWa6JDs7GsD6O8Q6CV6xMGZgRF/view?usp=drive_link	agendas/2025_02_04_HESS_agenda.pdf	agenda_markdowns/2025_02_04_HESS_agenda.md	2025-02-04	40.6869581	-73.9621926	222, Greene Avenue, Clinton Hill, Brooklyn, Kings County, City of New York, New York, 11238, United States	11238
PUBLIC REVIEW and COMMITTEE ACTIONS	Ace Brooklyn	61 Bond	https://maps.app.goo.gl/jSFeUX4SJFCWfbt16	Liquor, Wine, Beer & Cider	https://drive.google.com/file/d/1PKPVDiaIQ5s60vlAYmfIQywEec9FRdLt/view?usp=drive_link	agendas/2025_02_04_HESS_agenda.pdf	agenda_markdowns/2025_02_04_HESS_agenda.md	2025-02-04	40.687746	-73.984155	61, Bond Street, Boerum Hill, Brooklyn, Kings County, City of New York, New York, 11217, United States	11217
PUBLIC REVIEW and COMMITTEE ACTIONS	Shell's Loft	11 Adelphi	https://maps.app.goo.gl/SEVmhLeaQUG1iNAw9	Liquor, Wine, Beer & Cider	https://drive.google.com/file/d/1lzDXsrOkqL5qhTj8J0OlouRj10wXj7CU/view?usp=drive_link	agendas/2025_02_04_HESS_agenda.pdf	agenda_markdowns/2025_02_04_HESS_agenda.md	2025-02-04	40.6975283	-73.9726113	11, Adelphi Street, Fort Greene, Brooklyn, Kings County, City of New York, New York, 11205, United States	11205
PUBLIC REVIEW and COMMITTEE ACTIONS	Cafe Gitane	70 Hudson	https://maps.app.goo.gl/BUZJyuZ52RpBd6pJ8	CHANGE	https://drive.google.com/file/d/18OUoJMfZz6nu8wDjGjrW2pejjQtH1Lcp/view?usp=drive_link	agendas/2025_02_04_HESS_agenda.pdf	agenda_markdowns/2025_02_04_HESS_agenda.md	2025-02-04	40.7028256	-73.9812788	70, Hudson Avenue, Brooklyn Navy Yard, Brooklyn, Kings County, City of New York, New York, 11201, United States	11201
PUBLIC REVIEW and COMMITTEE ACTIONS	Enerugi Ramen	224 Atlantic	https://maps.app.goo.gl/7U6GR3HZMDXiUycZA	Wine, Beer & Cider		agendas/2025_02_04_HESS_agenda.pdf	agenda_markdowns/2025_02_04_HESS_agenda.md	2025-02-04	40.6892797	-73.9918293	224, Atlantic Avenue, Downtown Brooklyn, Brooklyn, Kings County, City of New York, New York, 11201, United States	11201
PUBLIC REVIEW and COMMITTEE ACTIONS	Heretic	270 Clermont	https://maps.app.goo.gl/xRyGB3tU2cNKkHU5A	Wine, Beer & Cider	https://drive.google.com/file/d/1Cf8v8Q-uO3owu1XrX_bMHtA7AoAGmxrz/view?usp=drive_link	agendas/2025_02_04_HESS_agenda.pdf	agenda_markdowns/2025_02_04_HESS_agenda.md	2025-02-04	40.6897992	-73.9703486	270, Clermont Avenue, Fort Greene, Brooklyn, Kings County, City of New York, New York, 11205, United States	11205
PUBLIC REVIEW and COMMITTEE ACTIONS	Floyd	72 Clark	https://maps.app.goo.gl/3ueuErFdzRU57Uuq6	WBC + LWBC	https://drive.google.com/file/d/1IQ_GtTh5qH0NTJ7td_x8LUBsLc-y84R6/view?usp=drive_link	agendas/2025_02_04_HESS_agenda.pdf	agenda_markdowns/2025_02_04_HESS_agenda.md	2025-02-04	40.6974825	-73.9934704	72, Clark Street, Brooklyn Heights, Brooklyn, Kings County, City of New York, New York, 11201, United States	11201
PUBLIC REVIEW and COMMITTEE ACTIONS	Brooklyn Farm/Binc	60 Henry	https://maps.app.goo.gl/yEHqPXc78V6sZkix9	SDWLK	https://drive.google.com/file/d/1xse9yaLUn4NzEWfxBf8NWKAbP2SiI-GZ/view?usp=drive_link	agendas/2025_03_04_HESS_agenda.pdf	agenda_markdowns/2025_03_04_HESS_agenda.md	2025-03-04	40.6992809	-73.9922822	The Binc, 60, Henry Street, Brooklyn Heights, Brooklyn, Kings County, City of New York, New York, 11201, United States	11201
PUBLIC REVIEW and COMMITTEE ACTIONS	Someday Bar NYC	364 Atlantic	https://maps.app.goo.gl/dsqpzbnsSUgX2rBh8	SDWLK	https://drive.google.com/file/d/1v-GJwkIsjd7UB2JOAd4Ge58pU5NhtbxU/view?usp=drive_link	agendas/2025_03_04_HESS_agenda.pdf	agenda_markdowns/2025_03_04_HESS_agenda.md	2025-03-04	40.6872595	-73.9863813	364, Atlantic Avenue, Boerum Hill, Brooklyn, Kings County, City of New York, New York, 11217, United States	11217
PUBLIC REVIEW and COMMITTEE ACTIONS	Grand Army	336 State	https://maps.app.goo.gl/i9xpHX6miE8MpEx68	SDWLK	https://drive.google.com/file/d/1u2EZCnUwUtenUvmYx556nY0cl4TvCeU6/view?usp=drive_link	agendas/2025_03_04_HESS_agenda.pdf	agenda_markdowns/2025_03_04_HESS_agenda.md	2025-03-04	40.6882527	-73.9864952	336, State Street, Boerum Hill, Brooklyn, Kings County, City of New York, New York, 11217, United States	11217
PUBLIC REVIEW and COMMITTEE ACTIONS	Khaosan	128 Montague	https://maps.app.goo.gl/yee1EGs5ymsciaZW7	Wine, Beer & Cider	https://drive.google.com/file/d/10bWHRujzB12aU44tKlpXrqSyfo-cG5aa/view?usp=drive_link	agendas/2025_03_04_HESS_agenda.pdf	agenda_markdowns/2025_03_04_HESS_agenda.md	2025-03-04	40.6945776	-73.9942536	128, Montague Street, Brooklyn Heights, Brooklyn, Kings County, City of New York, New York, 11201, United States	11201
PUBLIC REVIEW and COMMITTEE ACTIONS	957 Myrtle Broadway	14 Grove	https://maps.app.goo.gl/FXWMqrwUrJLyai7H9	Liquor, Wine, Beer & Cider	https://drive.google.com/file/d/1tSDc4lbgA8IuZswmcq0CcZ1w6njoWU86/view?usp=drive_link	agendas/2025_03_04_HESS_agenda.pdf	agenda_markdowns/2025_03_04_HESS_agenda.md	2025-03-04	40.690664	-73.9232461	14, Grove Street, Bushwick, Brooklyn, Kings County, City of New York, New York, 11221, United States	11221
PUBLIC REVIEW and COMMITTEE ACTIONS	Juliana's	19 Old Fulton	https://maps.app.goo.gl/t7aPZ6ZwcCFtLQNZ7	CHANGE + SDWLK	https://drive.google.com/file/d/1R1Hj0ENCtO-fcTeikG_blU8BdofLM0xw/view?usp=drive_link	agendas/2025_03_04_HESS_agenda.pdf	agenda_markdowns/2025_03_04_HESS_agenda.md	2025-03-04	40.7027428	-73.9934333	Juliana's Pizza, 19, Old Fulton Street, Dumbo, Brooklyn, Kings County, City of New York, New York, 11201, United States	11201
PUBLIC REVIEW and COMMITTEE ACTIONS	Alamo Drafthouse	445 Gold	https://maps.app.goo.gl/HytsZXe1wG1JidWS7	Liquor, Wine, Beer & Cider	https://drive.google.com/file/d/1huVt7o5Q8oAR0JsXM3VdTwWy5e6RmTA6/view?usp=drive_link	agendas/2025_03_04_HESS_agenda.pdf	agenda_markdowns/2025_03_04_HESS_agenda.md	2025-03-04	40.693314	-73.9833812	One Medical: City Point Brooklyn, 445, Gold Street, Downtown Brooklyn, Brooklyn, Kings County, City of New York, New York, 11201, United States	11201
PUBLIC REVIEW and COMMITTEE ACTIONS	El Gallo Taqueria	117 Adams	https://maps.app.goo.gl/Ft4PrhdgYeRpJxyf6	Liquor, Wine, Beer & Cider	https://drive.google.com/file/d/1-pM6ryt7DEkYOfX3IDWjIKOmt93VbFhw/view?usp=drive_link	agendas/2025_03_04_HESS_agenda.pdf	agenda_markdowns/2025_03_04_HESS_agenda.md	2025-03-04	40.7005099	-73.9882196	117, Adams Street, Dumbo, Brooklyn, Kings County, City of New York, New York, 11201, United States	11201
PUBLIC REVIEW and COMMITTEE ACTIONS	Golden Ratio	216 1/2 Greene	https://maps.app.goo.gl/J2YvLHyk6KsxQp5U9	Liquor, Wine, Beer & Cider	https://drive.google.com/file/d/1kOTanw5ReGAA3c3onCXVsDaFnRUUc8ZO/view?usp=drive_link	agendas/2025_03_04_HESS_agenda.pdf	agenda_markdowns/2025_03_04_HESS_agenda.md	2025-03-04	40.6869571	-73.9626851	Green Valley Market, 216 1/2, Greene Avenue, Clinton Hill, Brooklyn, Kings County, City of New York, New York, 11238, United States	11238
PUBLIC REVIEW and COMMITTEE ACTIONS	New Amsterdam Dumbo	53 Pearl	https://maps.app.goo.gl/uXszqSQA2EV6ieAy8	Cannabis Retail License	https://drive.google.com/file/d/1LTtHqECxhj9B6fRyvYf2En2Qg6xgPjXD/view?usp=drive_link	agendas/2025_06_03_HESS_agenda.pdf	agenda_markdowns/2025_06_03_HESS_agenda.md	2025-06-03	40.7033826	-73.9873196	53, Pearl Street, Dumbo, Brooklyn, Kings County, City of New York, New York, 11201, United States	11201
PUBLIC REVIEW and COMMITTEE ACTIONS	The Brooklyn Bazaar	56 Jay	https://www.google.com/maps/place/56+Jay+St,+Brooklyn,+NY+11201/@40.703202,-73.9894099,824m/data=!3m2!1e3!4b1!4m6!3m5!1s0x89c25a33b0673691:0x5973630b06beb2a3!8m2!3d40.703202!4d-73.986835!16s%2Fg%2F11dzntdbsl?entry=ttu&g_ep=EgoyMDI1MDMyMy4wIKXMDSoASAFQAw%3D%3D	Cannabis Retail License	https://drive.google.com/file/d/1FmH7IAL2fhEOOXwNKlqqQKmI-Gt62vJy/view?usp=drive_link	agendas/2025_06_03_HESS_agenda.pdf	agenda_markdowns/2025_06_03_HESS_agenda.md	2025-06-03	40.703227	-73.986749	56, Jay Street, Dumbo, Brooklyn, Kings County, City of New York, New York, 11201, United States	11201
PUBLIC REVIEW and COMMITTEE ACTIONS	Vine	81 Fleet	https://maps.app.goo.gl/dRmq7DigEkTkmDHD6	RDWY	https://drive.google.com/file/d/118BjI0hyM5wWbk4itt0_nXGWJDvKKw79/view?usp=drive_link	agendas/2025_06_03_HESS_agenda.pdf	agenda_markdowns/2025_06_03_HESS_agenda.md	2025-06-03	40.6933595	-73.9816105	Vine, 81, Fleet Place, Downtown Brooklyn, Brooklyn, Kings County, City of New York, New York, 11201, United States	11201
PUBLIC REVIEW and COMMITTEE ACTIONS	Brooklyn Express	159 Bridge	https://maps.app.goo.gl/FH6ywDoHUgxDnoPC9	Liquor, Wine, Beer & Cider	https://drive.google.com/file/d/1i4LAdJALOLYiIFFKUzCm7qE8HGu3Niug/view	agendas/2025_06_03_HESS_agenda.pdf	agenda_markdowns/2025_06_03_HESS_agenda.md	2025-06-03	40.6938612	-74.0006003	ONE°15 Brooklyn Marina, 159, Bridge Park Drive, Columbia Street Waterfront District, Brooklyn, Kings County, City of New York, New York, 11201, United States	11201
PUBLIC REVIEW and COMMITTEE ACTIONS	Patsy's Pizzeria	7 Old Fulton	https://maps.app.goo.gl/CUauknDhwXKmXR7X7	Liquor, Wine, Beer & Cider	https://drive.google.com/file/d/1CM595ULFHQdUFKqLfY0QRVnN-g99er0S/view?usp=drive_link	agendas/2025_06_03_HESS_agenda.pdf	agenda_markdowns/2025_06_03_HESS_agenda.md	2025-06-03	40.7029414	-73.9938932	7 Old Fulton, 7, Old Fulton Street, Dumbo, Brooklyn, Kings County, City of New York, New York, 11201, United States	11201
PUBLIC REVIEW and COMMITTEE ACTIONS	Oma Grasa	753 Fulton	https://maps.app.goo.gl/6LBVwhrPkmt6pfPx7	CLASS	https://drive.google.com/file/d/17iTOWHOJltPTx9iQukCXwphllDGNwrFX/view?usp=drive_link	agendas/2025_06_03_HESS_agenda.pdf	agenda_markdowns/2025_06_03_HESS_agenda.md	2025-06-03	40.6865517	-73.9746741	Ma Massa, 753, Fulton Street, Fort Greene, Brooklyn, Kings County, City of New York, New York, 11217, United States	11217
PUBLIC REVIEW and COMMITTEE ACTIONS	Wei's	884 Fulton	https://maps.app.goo.gl/nNJ1GS2YfcGD6ddM7	CLASS		agendas/2025_06_03_HESS_agenda.pdf	agenda_markdowns/2025_06_03_HESS_agenda.md	2025-06-03	40.6831057	-73.9657053	Wei's, 884, Fulton Street, Prospect Heights, Brooklyn, Kings County, City of New York, New York, 11238, United States	11238
PUBLIC REVIEW and COMMITTEE ACTIONS	Grand Canyon Rest.	143 Montague	https://maps.app.goo.gl/569gyKeo2TA99CtdA	Liquor, Wine, Beer & Cider	https://drive.google.com/file/d/1AXyJNDNt_k6g-553G1LxFpPjITy4bU7b/view?usp=drive_link	agendas/2025_06_03_HESS_agenda.pdf	agenda_markdowns/2025_06_03_HESS_agenda.md	2025-06-03	40.6948273	-73.9935591	143, Montague Street, Brooklyn Heights, Brooklyn, Kings County, City of New York, New York, 11201, United States	11201
PUBLIC REVIEW: NY State Cannabis Retail License Applications	DTV Enterprises	314 Livingston	https://maps.app.goo.gl/KT8TurtGH4Rh4r7c7	Cannabis Retail License	https://drive.google.com/file/d/1TDKjBUzqesqDfWhwN4SgzZr-hLNqsywP/view?usp=drive_link	agendas/2023_12_06_HESS_agenda.pdf	agenda_markdowns/2023_12_06_HESS_agenda.md	2023-12-06	40.6880236	-73.9822089	314, Livingston Street, Downtown Brooklyn, Brooklyn, Kings County, City of New York, New York, 11217, United States	11217
PUBLIC REVIEW: NY State Cannabis Retail License Applications	Cannabist	44 Court	https://maps.app.goo.gl/bEZjoBV772YStbez7	Cannabis Retail License	https://drive.google.com/file/d/1qSHtgDUb4eJtFIhW9pv6qE4tp8LwYrB8/view?usp=drive_link	agendas/2023_12_06_HESS_agenda.pdf	agenda_markdowns/2023_12_06_HESS_agenda.md	2023-12-06	40.6927648	-73.991228	Planned Parenthood, 44, Court Street, Downtown Brooklyn, Brooklyn, Kings County, City of New York, New York, 11201, United States	11201
PUBLIC REVIEW: NY State Cannabis Retail License Applications	Green World 374	374 Atlantic	https://maps.app.goo.gl/pv78imwN6RRgtn358	Cannabis Retail License	https://drive.google.com/file/d/1SNOySDp9TxMkOHdYIKArNuwxtBPvbHqs/view?usp=drive_link	agendas/2023_12_06_HESS_agenda.pdf	agenda_markdowns/2023_12_06_HESS_agenda.md	2023-12-06	40.6871499	-73.9860336	374, Atlantic Avenue, Boerum Hill, Brooklyn, Kings County, City of New York, New York, 11217, United States	11217
PUBLIC REVIEW: NY State Cannabis Retail License Applications	Kings County Catalyst	473 Myrtle	https://maps.app.goo.gl/MVpdbSRx6mnzojLY7	Cannabis Retail License		agendas/2023_12_06_HESS_agenda.pdf	agenda_markdowns/2023_12_06_HESS_agenda.md	2023-12-06	40.6935624	-73.9663839	473, Myrtle Avenue, Clinton Hill, Brooklyn, Kings County, City of New York, New York, 11205, United States	11205
PUBLIC REVIEW: NY State Cannabis Retail License Applications	R and R Remedies	530 Fulton	https://maps.app.goo.gl/3Ce6tyWPqk9WPk7g6	Cannabis Retail License		agendas/2023_12_06_HESS_agenda.pdf	agenda_markdowns/2023_12_06_HESS_agenda.md	2023-12-06	40.6890325	-73.9816286	530, Fulton Mall, Downtown Brooklyn, Brooklyn, Kings County, City of New York, New York, 11201, United States	11201
PUBLIC REVIEW: NY State Cannabis Retail License Applications	The Higher Path	530 Fulton	https://maps.app.goo.gl/3Ce6tyWPqk9WPk7g6	Cannabis Retail License		agendas/2023_12_06_HESS_agenda.pdf	agenda_markdowns/2023_12_06_HESS_agenda.md	2023-12-06	40.6890325	-73.9816286	530, Fulton Mall, Downtown Brooklyn, Brooklyn, Kings County, City of New York, New York, 11201, United States	11201
PUBLIC REVIEW: NY State Cannabis Retail License Applications	Picasso Labs	65 Jay	https://maps.app.goo.gl/yzF9CWL4bra7me2a7	Cannabis Retail License		agendas/2023_12_06_HESS_agenda.pdf	agenda_markdowns/2023_12_06_HESS_agenda.md	2023-12-06	40.7028373	-73.9863619	65, Jay Street, Dumbo, Brooklyn, Kings County, City of New York, New York, 11201, United States	11201
PUBLIC REVIEW: NY State Cannabis Retail License Applications	Zenbud	541 Myrtle	https://maps.app.goo.gl/rLSwKffg7nqgVBHw6	Cannabis Retail License		agendas/2023_12_06_HESS_agenda.pdf	agenda_markdowns/2023_12_06_HESS_agenda.md	2023-12-06	40.6939291	-73.9629995	Farmer in the Deli, 541, Myrtle Avenue, Clinton Hill, Brooklyn, Kings County, City of New York, New York, 11205, United States	11205
PUBLIC REVIEW: NY State Cannabis Retail License Applications	Xander Legacy	946 Fulton	https://maps.app.goo.gl/cpW7M2wUAADR49ex6	Cannabis Retail License		agendas/2023_12_06_HESS_agenda.pdf	agenda_markdowns/2023_12_06_HESS_agenda.md	2023-12-06	40.6824458	-73.9630059	946, Fulton Street, Prospect Heights, Brooklyn, Kings County, City of New York, New York, 11238, United States	11238
PUBLIC REVIEW: NY State Cannabis Retail License Applications	Hop Stock & Barrel IV	339 Atlantic	https://maps.app.goo.gl/VFEinU5f5jm92cRv9	Cannabis Retail License		agendas/2023_12_06_HESS_agenda.pdf	agenda_markdowns/2023_12_06_HESS_agenda.md	2023-12-06	40.6880268	-73.9871775	339, Atlantic Avenue, Boerum Hill, Brooklyn, Kings County, City of New York, New York, 11201, United States	11201
PUBLIC REVIEW: NY State Liquor License Applications	Deity II	368 Atlantic	https://maps.app.goo.gl/taYYJ5jG89Agr8zX6	Liquor License Application	https://drive.google.com/file/d/1zpDdWab5NVk67qi1YdFN1efl-84vrjIC/view?usp=drive_link	agendas/2023_12_06_HESS_agenda.pdf	agenda_markdowns/2023_12_06_HESS_agenda.md	2023-12-06	40.6871719	-73.9862358	Deity Events, 368, Atlantic Avenue, Boerum Hill, Brooklyn, Kings County, City of New York, New York, 11217, United States	11217
PUBLIC REVIEW: NY State Liquor License Applications	Lady Wortley LLC	148 Montague	https://maps.app.goo.gl/hJkFDGfdY3uSVHug7	Liquor License Application	https://drive.google.com/file/d/1SEcul60RCuU2mCOabaDR-9HoFQ7iR1CQ/view?usp=drive_link	agendas/2023_12_06_HESS_agenda.pdf	agenda_markdowns/2023_12_06_HESS_agenda.md	2023-12-06	40.6943376	-73.9934019	148, Montague Street, Brooklyn Heights, Brooklyn, Kings County, City of New York, New York, 11201, United States	11201
PUBLIC REVIEW: NY State Liquor License Applications	20 Jay St Wine	28 Jay	https://maps.app.goo.gl/xgcfSiM6nDRbzntUA	Liquor License Application	https://drive.google.com/file/d/1s1cyYC_X9yw02PHCQzt0jt8rPQOoMDMn/view?usp=drive_link	agendas/2023_12_06_HESS_agenda.pdf	agenda_markdowns/2023_12_06_HESS_agenda.md	2023-12-06	40.703885	-73.986707	28, Jay Street, Dumbo, Brooklyn, Kings County, City of New York, New York, 11201, United States	11201
PUBLIC REVIEW and COMMITTEE ACTIONS	Locanda Vini & Olii	129 Gates	https://maps.app.goo.gl/h3FzmZgm6nnVAmeB6	RDWY	https://drive.google.com/file/d/1-psrs5HegW-vSTCtIbz9zA7Ku5KmZfOb/view?usp=drive_link	agendas/2025_05_06_HESS_agenda.pdf	agenda_markdowns/2025_05_06_HESS_agenda.md	2025-05-06	40.6849627	-73.9629482	Biddrina Gelato, 129, Gates Avenue, Clinton Hill, Brooklyn, Kings County, City of New York, New York, 11238, United States	11238
PUBLIC REVIEW and COMMITTEE ACTIONS	Putnam's	419 Myrtle	https://maps.app.goo.gl/deP8gdcZcgWnQRV87	SDWLK	https://drive.google.com/file/d/1L1Rpn2t9-XQtNyEV7IRepQG45WgFacYH/view?usp=drive_link	agendas/2025_05_06_HESS_agenda.pdf	agenda_markdowns/2025_05_06_HESS_agenda.md	2025-05-06	40.693286	-73.969058	419, Myrtle Avenue, Fort Greene, Brooklyn, Kings County, City of New York, New York, 11205, United States	11205
PUBLIC REVIEW and COMMITTEE ACTIONS	Bar Tabac	128 Smith	https://maps.app.goo.gl/zsPfrqrpd7m788mD7	SDWLK	https://drive.google.com/file/d/1kuqzsTHMAeihE1jbnE-nqjddjtiJz-VC/view?usp=drive_link	agendas/2025_05_06_HESS_agenda.pdf	agenda_markdowns/2025_05_06_HESS_agenda.md	2025-05-06	40.6873685	-73.9902736	Bar Tabac, 128, Smith Street, Boerum Hill, Brooklyn, Kings County, City of New York, New York, 11201, United States	11201
PUBLIC REVIEW and COMMITTEE ACTIONS	Talea Beer	61 Bergen	https://maps.app.goo.gl/dptFJ6iBPzox2u1d9	SDWLK & RDWY	https://drive.google.com/file/d/1lhTIeotYIHW_V2Eo06pxTm1Zzkcw9fNe/view?usp=drive_link	agendas/2025_05_06_HESS_agenda.pdf	agenda_markdowns/2025_05_06_HESS_agenda.md	2025-05-06	40.687157	-73.9908532	61, Bergen Street, Boerum Hill, Brooklyn, Kings County, City of New York, New York, 11201, United States	11201
PUBLIC REVIEW and COMMITTEE ACTIONS	Evelina	211 Dekalb	https://maps.app.goo.gl/EqKHDHdyjtv2UzxR6	SDWLK & RDWY	https://drive.google.com/file/d/1Jda_fEctzv7LklSjU_0goIIwkjZN5RUd/view?usp=drive_link	agendas/2025_05_06_HESS_agenda.pdf	agenda_markdowns/2025_05_06_HESS_agenda.md	2025-05-06	40.6896593	-73.9710073	Evelina, 211, DeKalb Avenue, Fort Greene, Brooklyn, Kings County, City of New York, New York, 11205, United States	11205
PUBLIC REVIEW and COMMITTEE ACTIONS	Piccola Cucina	141 Nevins	https://maps.app.goo.gl/fZp83FLp8oqNvx736	SDWLK & RDWY	https://drive.google.com/file/d/1izFe4ZzYjpwAGcS6AfbxIqlo96xQwq56/view?usp=drive_link	agendas/2025_05_06_HESS_agenda.pdf	agenda_markdowns/2025_05_06_HESS_agenda.md	2025-05-06	40.6842574	-73.9836721	141, Nevins Street, Boerum Hill, Brooklyn, Kings County, City of New York, New York, 11217, United States	11217
PUBLIC REVIEW and COMMITTEE ACTIONS	Fritz	737 Fulton	https://maps.app.goo.gl/Ci3Wq6FftW3Hbg71A	OPS	https://drive.google.com/file/d/1dPuCou2pqe3Ycdf3du_QRW9QfDY8tQdT/view?usp=drive_link	agendas/2025_05_06_HESS_agenda.pdf	agenda_markdowns/2025_05_06_HESS_agenda.md	2025-05-06	40.6867255	-73.9750118	737, Fulton Street, Fort Greene, Brooklyn, Kings County, City of New York, New York, 11217, United States	11217
PUBLIC REVIEW and COMMITTEE ACTIONS	Third Falcon	360 Myrtle	https://maps.app.goo.gl/d2UCK1FATdXwSuqt7	CLASS	https://drive.google.com/file/d/1L8ZnpHSo302ut658_zE7WrBVGfPg5HbS/view?usp=drive_link	agendas/2025_05_06_HESS_agenda.pdf	agenda_markdowns/2025_05_06_HESS_agenda.md	2025-05-06	40.6930882	-73.9720057	Cafefornia, 360, Myrtle Avenue, Fort Greene, Brooklyn, Kings County, City of New York, New York, 11205, United States	11205
PUBLIC REVIEW and COMMITTEE ACTIONS	Pirate Ship Hosp.	15 Main	https://maps.app.goo.gl/7y1DYaY4XTSQRnH77	Liquor, Wine, Beer & Cider	https://drive.google.com/file/d/1uMHgAsuzNWuTQcW5AlL-xNGHi1I3DXBT/view?usp=drive_link	agendas/2025_05_06_HESS_agenda.pdf	agenda_markdowns/2025_05_06_HESS_agenda.md	2025-05-06	40.7035169	-73.9904314	Atrium Dumbo, 15, Main Street, Dumbo, Brooklyn, Kings County, City of New York, New York, 11201, United States	11201
PUBLIC REVIEW and COMMITTEE ACTIONS	BKNY Restaurant	159 Bridge	https://maps.app.goo.gl/QyBsDfy6mWUPjmv36	Liquor, Wine, Beer & Cider	https://drive.google.com/file/d/1k-VKce52IuMPQ7oUiACQumbpoSWYLPZt/view?usp=drive_link	agendas/2025_05_06_HESS_agenda.pdf	agenda_markdowns/2025_05_06_HESS_agenda.md	2025-05-06	40.6938612	-74.0006003	ONE°15 Brooklyn Marina, 159, Bridge Park Drive, Columbia Street Waterfront District, Brooklyn, Kings County, City of New York, New York, 11201, United States	11201
PUBLIC REVIEW and COMMITTEE ACTIONS	BKNY Vessels	159 Bridge	https://maps.app.goo.gl/QyBsDfy6mWUPjmv36	Liquor, Wine, Beer & Cider	https://drive.google.com/file/d/1oqoJiHRud0wPaXFNB9AIUIrmBMNxOX7e/view?usp=drive_link	agendas/2025_05_06_HESS_agenda.pdf	agenda_markdowns/2025_05_06_HESS_agenda.md	2025-05-06	40.6938612	-74.0006003	ONE°15 Brooklyn Marina, 159, Bridge Park Drive, Columbia Street Waterfront District, Brooklyn, Kings County, City of New York, New York, 11201, United States	11201
PUBLIC REVIEW and COMMITTEE ACTIONS	Winner @ Alloy	80-84 Flatbush	https://maps.app.goo.gl/RZcX2WLyDAD5PGPE9	Liquor, Wine, Beer & Cider	https://drive.google.com/file/d/1wHd9BECdq4LHJWEHsa9mADGMTdXQuvED/view?usp=drive_link	agendas/2025_05_06_HESS_agenda.pdf	agenda_markdowns/2025_05_06_HESS_agenda.md	2025-05-06	40.6520481	-73.959027	Flatbush, Brooklyn, Kings County, City of New York, New York, 11226, United States	11226
PUBLIC REVIEW and COMMITTEE ACTIONS	Henry's End	72 Henry	https://maps.app.goo.gl/Ha64Vx2RsEWWWSpm6	Alteration	https://goo.gl/maps/Ha64Vx2RsEWWWSpm6	agendas/2025_05_06_HESS_agenda.pdf	agenda_markdowns/2025_05_06_HESS_agenda.md	2025-05-06	40.7215679	-73.9427127	72, North Henry Street, Greenpoint, Brooklyn, Kings County, City of New York, New York, 11222, United States	11222
PUBLIC REVIEW and COMMITTEE ACTIONS	Time Out Market	55 Water	https://maps.app.goo.gl/Euiefr7mJDiJYvV68	CORP	https://drive.google.com/file/d/1WcrXZ5aKSGsdn-6FhvOedurHkwN7C87j/view?usp=drive_link	agendas/2025_05_06_HESS_agenda.pdf	agenda_markdowns/2025_05_06_HESS_agenda.md	2025-05-06	40.7035408	-73.9919894	Empire Stores, 55, Water Street, Dumbo, Brooklyn, Kings County, City of New York, New York, 11201, United States	11201
PUBLIC REVIEW and COMMITTEE ACTIONS	Time Out 5th Flr	55 Water	https://maps.app.goo.gl/Euiefr7mJDiJYvV68	CORP	https://drive.google.com/file/d/1z6aO13J0ZmwUUpyxj8lD4vt7hF5E-F1J/view?usp=drive_link	agendas/2025_05_06_HESS_agenda.pdf	agenda_markdowns/2025_05_06_HESS_agenda.md	2025-05-06	40.7035408	-73.9919894	Empire Stores, 55, Water Street, Dumbo, Brooklyn, Kings County, City of New York, New York, 11201, United States	11201
PUBLIC REVIEW: NY State Liquor License Applications	City Vineyard LLC	25 Columbia Hts	https://maps.app.goo.gl/Lrji2bQTLrn8XaKJ6	NY State Liquor License Applications	https://drive.google.com/file/d/1yqHhrTjpVwrnqwaARYnezcZBblJ__OBP/view?usp=drive_link	agendas/2023_11_01_HESS_agenda.pdf	agenda_markdowns/2023_11_01_HESS_agenda.md	2023-11-01	40.701943	-73.9938648	25, Columbia Heights, Dumbo, Brooklyn, Kings County, City of New York, New York, 11201, United States	11201
PUBLIC REVIEW: NY State Liquor License Applications	Taylormade	222-226 Greene Ave	https://maps.app.goo.gl/6TVh2weV8FjbAPRN7	NY State Liquor License Applications		agendas/2023_11_01_HESS_agenda.pdf	agenda_markdowns/2023_11_01_HESS_agenda.md	2023-11-01	40.695899	-73.9216339	Greene Avenue, Bushwick, Brooklyn, Kings County, City of New York, New York, 11237, United States	11237
PUBLIC REVIEW: NY State Liquor License Applications	Maya Congee	1013 Fulton	https://maps.app.goo.gl/nzBqYMgKRTn1GL2V9	NY State Liquor License Applications	https://drive.google.com/file/d/1b2He2SDB8XEqjuzgh2EgJjKvA9zeSwWs/view?usp=drive_link	agendas/2023_11_01_HESS_agenda.pdf	agenda_markdowns/2023_11_01_HESS_agenda.md	2023-11-01	40.6824544	-73.9613917	Maya Congee Café, 1013, Fulton Street, Prospect Heights, Brooklyn, Kings County, City of New York, New York, 11238, United States	11238
PUBLIC REVIEW: NY State Cannabis Retail License Applications	GMDSS LLC. ('The Travel Agency')	118-122 Flatbush	https://maps.app.goo.gl/pTYHXLq4RcpPwcAC6	Cannabis Retail License		agendas/2023_11_01_HESS_agenda.pdf	agenda_markdowns/2023_11_01_HESS_agenda.md	2023-11-01	40.6520481	-73.959027	Flatbush, Brooklyn, Kings County, City of New York, New York, 11226, United States	11226
PUBLIC REVIEW: NY State Cannabis Retail License Applications	Ramon Reyes LLC	453 Fulton	https://maps.app.goo.gl/kXsqKoy6fX7ENoQ76	Cannabis Retail License	https://drive.google.com/file/d/1IsbJlT3h8DocKLtx5A2pH-9nRyJYvUXO/view?usp=drive_link	agendas/2023_11_01_HESS_agenda.pdf	agenda_markdowns/2023_11_01_HESS_agenda.md	2023-11-01	40.6903989	-73.9849318	453, Fulton Mall, Downtown Brooklyn, Brooklyn, Kings County, City of New York, New York, 11201, United States	11201
PUBLIC REVIEW: NY State Cannabis Retail License Applications	Astro Management	292 Atlantic	https://maps.app.goo.gl/LYMQBPmFyjvz5zg18	Cannabis Retail License	https://drive.google.com/file/d/1prkV1EiFCyLLTWcWD4J1fA6UIK0ec7Jo/view?usp=drive_link	agendas/2023_11_01_HESS_agenda.pdf	agenda_markdowns/2023_11_01_HESS_agenda.md	2023-11-01	40.6884493	-73.9891632	Yerba Buena, 292, Atlantic Avenue, Boerum Hill, Brooklyn, Kings County, City of New York, New York, 11201, United States	11201
PUBLIC REVIEW: NY State Cannabis Retail License Applications	Cassandra Taylor	530 Fulton	https://maps.app.goo.gl/3Ce6tyWPqk9WPk7g6	Cannabis Retail License	https://drive.google.com/file/d/1gsa1Vsg1-g3GSaKNrAXLU2yyfwBzcYqh/view?usp=drive_link	agendas/2023_11_01_HESS_agenda.pdf	agenda_markdowns/2023_11_01_HESS_agenda.md	2023-11-01	40.6890325	-73.9816286	530, Fulton Mall, Downtown Brooklyn, Brooklyn, Kings County, City of New York, New York, 11201, United States	11201
PUBLIC REVIEW: NY State Cannabis Retail License Applications	Plantbase	48 Pearl	https://maps.app.goo.gl/epJYy8SRtk3o4XSm9	Cannabis Retail License	https://drive.google.com/file/d/1lzV4IipcYFTHdlCZiCav1tEIu5bvn_kM/view?usp=drive_link	agendas/2023_11_01_HESS_agenda.pdf	agenda_markdowns/2023_11_01_HESS_agenda.md	2023-11-01	40.7034809	-73.9876863	48, Pearl Street, Dumbo, Brooklyn, Kings County, City of New York, New York, 11201, United States	11201
PUBLIC REVIEW and COMMITTEE ACTIONS	The Brooklyn Bazaar	56 Jay	https://www.google.com/maps/place/56+Jay+St,+Brooklyn,+NY+11201/@40.703202,-73.9894099,824m/data=!3m2!1e3!4b1!4m6!3m5!1s0x89c25a33b0673691:0x5973630b06beb2a3!8m2!3d40.703202!4d-73.986835!16s%2Fg%2F11dzntdbsl?entry=ttu&g_ep=EgoyMDI1MDMyMy4wIKXMDSoASAFQAw%3D%3D	Cannabis Retail License	https://drive.google.com/file/d/1mlGQiIx8FThK-Pn9F3loYJ03PHHGoQr5/view?usp=drive_link	agendas/2025_04_01_HESS_agenda.pdf	agenda_markdowns/2025_04_01_HESS_agenda.md	2025-04-01	40.703227	-73.986749	56, Jay Street, Dumbo, Brooklyn, Kings County, City of New York, New York, 11201, United States	11201
PUBLIC REVIEW and COMMITTEE ACTIONS	Green Heights	19 Greene	https://maps.app.goo.gl/xfpTAHuac4u4RtPy6	Cannabis Retail License	https://drive.google.com/file/d/1brmvCG7FBpCAtFevshkbfOZj4nEN8jF4/view?usp=drive_link	agendas/2025_04_01_HESS_agenda.pdf	agenda_markdowns/2025_04_01_HESS_agenda.md	2025-04-01	40.6860537	-73.9725911	Superior Markets, 19, Greene Avenue, Fort Greene, Brooklyn, Kings County, City of New York, New York, 11238, United States	11238
PUBLIC REVIEW and COMMITTEE ACTIONS	Whitstone LLC	50 Old Fulton	https://maps.app.goo.gl/1zZQtA6gasDHenp28	Cannabis Retail License	https://drive.google.com/file/d/1n-zN8PhFP47xk848VeAZPvheDnMRz92U/view?usp=drive_link	agendas/2025_04_01_HESS_agenda.pdf	agenda_markdowns/2025_04_01_HESS_agenda.md	2025-04-01	40.7020448	-73.9931601	50, Old Fulton Street, Dumbo, Brooklyn, Kings County, City of New York, New York, 11201, United States	11201
PUBLIC REVIEW and COMMITTEE ACTIONS	Mariscos El Submarino	507 Myrtle	https://maps.app.goo.gl/YnNcWscmur5zH9Sq9	Liquor, Wine, Beer & Cider	https://drive.google.com/file/d/135tBfpd84GUbm-Uarpwgkp1Wa0smoG39/view?usp=drive_link	agendas/2025_04_01_HESS_agenda.pdf	agenda_markdowns/2025_04_01_HESS_agenda.md	2025-04-01	40.6937746	-73.96461	507, Myrtle Avenue, Clinton Hill, Brooklyn, Kings County, City of New York, New York, 11205, United States	11205
PUBLIC REVIEW and COMMITTEE ACTIONS	Taqueria Green Valley	154 Carlton	https://maps.app.goo.gl/kNGgJbnqXWjAZsmE6	Liquor, Wine, Beer & Cider	https://drive.google.com/file/d/1koq9HjnD-WRcxdpmecHbHWYfEwZGSj4C/view?usp=drive_link	agendas/2025_04_01_HESS_agenda.pdf	agenda_markdowns/2025_04_01_HESS_agenda.md	2025-04-01	40.6930017	-73.9729655	Taqueria Fort Greene, 154, Carlton Avenue, Fort Greene, Brooklyn, Kings County, City of New York, New York, 11205, United States	11205
PUBLIC REVIEW and COMMITTEE ACTIONS	The Tillary Hotel	85 Flatbush	https://maps.app.goo.gl/2PaiMNW7YLoPNMuH7	Alteration	https://drive.google.com/file/d/1bSekrIh0P2ltziCUp1lJSw1z2792Iv8q/view?usp=drive_link	agendas/2025_04_01_HESS_agenda.pdf	agenda_markdowns/2025_04_01_HESS_agenda.md	2025-04-01	40.6966011	-73.9845337	The Tillary Hotel, 85, Flatbush Avenue Extension, Downtown Brooklyn, Brooklyn, Kings County, City of New York, New York, 11201, United States	11201
PUBLIC REVIEW and COMMITTEE ACTIONS	Sailor	228 Dekalb	https://maps.app.goo.gl/693dud7wxgAHP3hv5	SDWLK & RDWY	https://drive.google.com/file/d/1iFlffBx7lyFgEEPWvSnrog2nFPP8Zgmw/view?usp=drive_link	agendas/2025_04_01_HESS_agenda.pdf	agenda_markdowns/2025_04_01_HESS_agenda.md	2025-04-01	40.6893919	-73.9703166	Sailor, 228, DeKalb Avenue, Fort Greene, Brooklyn, Kings County, City of New York, New York, 11205, United States	11205
PUBLIC REVIEW and COMMITTEE ACTIONS	Rhodora Wine Bar	197 Adelphi	https://maps.app.goo.gl/3QBEHUZYVSjcMErZ9	SDWLK & RDWY	https://drive.google.com/file/d/19Sq-GMB0IKfp7afpAiTBtPEdDn_4jVzJ/view?usp=drive_link	agendas/2025_04_01_HESS_agenda.pdf	agenda_markdowns/2025_04_01_HESS_agenda.md	2025-04-01	40.6917428	-73.9714335	Rhodora Wine Bar, 197, Adelphi Street, Fort Greene, Brooklyn, Kings County, City of New York, New York, 11205, United States	11205
PUBLIC REVIEW and COMMITTEE ACTIONS	Rucola	190 Dean	https://maps.app.goo.gl/pCbuaHZbbpSs3XmH7	SDWLK & RDWY	https://drive.google.com/file/d/1Wwl6Soflg6UijXdWcvQTSJGsg1LYWEy3/view?usp=drive_link	agendas/2025_04_01_HESS_agenda.pdf	agenda_markdowns/2025_04_01_HESS_agenda.md	2025-04-01	40.6856169	-73.9858704	190, Dean Street, Boerum Hill, Brooklyn, Kings County, City of New York, New York, 11217, United States	11217
PUBLIC REVIEW and COMMITTEE ACTIONS	Table 87	87 Atlantic	https://maps.app.goo.gl/NYmuXAFb5v4FABoD9	SDWLK & RDWY	https://drive.google.com/file/d/1GQHuuVuMIS5PdXpxyVVkENBc6tlvOg9X/view?usp=drive_link	agendas/2025_04_01_HESS_agenda.pdf	agenda_markdowns/2025_04_01_HESS_agenda.md	2025-04-01	40.6912362	-73.9973386	Table 87 Coal Oven Pizza, 87, Atlantic Avenue, Brooklyn Heights, Brooklyn, Kings County, City of New York, New York, 11201, United States	11201
PUBLIC REVIEW and COMMITTEE ACTIONS	Café Paulette	1 S. Elliott	https://maps.app.goo.gl/hEJYBFJdx22yJjbZ7	SDWLK & RDWY	https://drive.google.com/file/d/1UuYVigorf3Rj0pBk0lbcMroDeIiefopX/view?usp=drive_link	agendas/2025_04_01_HESS_agenda.pdf	agenda_markdowns/2025_04_01_HESS_agenda.md	2025-04-01	40.6895928	-73.9759241	1, South Elliott Place, Fort Greene, Brooklyn, Kings County, City of New York, New York, 11217, United States	11217
PUBLIC REVIEW and COMMITTEE ACTIONS	Petit Paulette	136 Dekalb	https://maps.app.goo.gl/ydZv19zfgDyd7NN98	RDWY	https://drive.google.com/file/d/1pLsF-6w_i2TqNge7f5n4ZPX5ZCnqh1dp/view?usp=drive_link	agendas/2025_04_01_HESS_agenda.pdf	agenda_markdowns/2025_04_01_HESS_agenda.md	2025-04-01	40.6896043	-73.9757842	136, DeKalb Avenue, Fort Greene, Brooklyn, Kings County, City of New York, New York, 11217, United States	11217
PUBLIC REVIEW and COMMITTEE ACTIONS	Noodle Pudding	38 Henry	https://maps.app.goo.gl/y9KEhzWzrWP9W68Y7	RDWY	https://drive.google.com/file/d/1SgeNNqoyv22EoReWv_QigzkUCMSY9TE0/view?usp=drive_link	agendas/2025_04_01_HESS_agenda.pdf	agenda_markdowns/2025_04_01_HESS_agenda.md	2025-04-01	40.6998103	-73.9920258	38, Henry Street, Brooklyn Heights, Brooklyn, Kings County, City of New York, New York, 11201, United States	11201
PUBLIC REVIEW and COMMITTEE ACTIONS	Harlem Seafood Soul	445 Albee	https://maps.app.goo.gl/SxnMTupGJZTFx6ZN6	Wine, Beer & Cider	https://drive.google.com/file/d/1Yqxc_pkR0fnLC4PhJV-O8_7TA3Q5CHR3/view?usp=drive_link	agendas/2025_04_01_HESS_agenda.pdf	agenda_markdowns/2025_04_01_HESS_agenda.md	2025-04-01	40.6908869	-73.9830979	City Point, 445, Albee Square, Downtown Brooklyn, Brooklyn, Kings County, City of New York, New York, 11201, United States	11201
